{
  "type": "FeatureCollection",
  "features": [
    {
      "type": "Feature",
      "properties": {
        "id": "CW_001",
        "source": "satellite_image_digitized"
      },
      "geometry": {
        "type": "Polygon",
        "coordinates": [
          [
            [
              127.4835158,
              34.9687037
            ],
            [
              127.4834742,
              34.9685756
            ],
            [
              127.4834054,
              34.9685849
            ],
            [
              127.4834498,
              34.9687156
            ],
            [
              127.4835158,
              34.9687037
            ]
          ]
        ]
      }
    },
    {
      "type": "Feature",
      "properties": {
        "id": "CW_002",
        "source": "satellite_image_digitized"
      },
      "geometry": {
        "type": "Polygon",
        "coordinates": [
          [
            [
              127.4824133,
              34.9689378
            ],
            [
              127.4823763,
              34.9688245
            ],
            [
              127.4823089,
              34.9688369
            ],
            [
              127.4823443,
              34.9689504
            ],
            [
              127.4824133,
              34.9689378
            ]
          ]
        ]
      }
    },
    {
      "type": "Feature",
      "properties": {
        "id": "CW_003",
        "source": "satellite_image_digitized"
      },
      "geometry": {
        "type": "Polygon",
        "coordinates": [
          [
            [
              127.4827268,
              34.9704483
            ],
            [
              127.4827747,
              34.9704365
            ],
            [
              127.4827664,
              34.9704075
            ],
            [
              127.4827167,
              34.9704175
            ],
            [
              127.4827268,
              34.9704483
            ]
          ]
        ]
      }
    },
    {
      "type": "Feature",
      "properties": {
        "id": "CW_004",
        "source": "satellite_image_digitized"
      },
      "geometry": {
        "type": "Polygon",
        "coordinates": [
          [
            [
              127.4826663,
              34.9702545
            ],
            [
              127.4827152,
              34.9702453
            ],
            [
              127.4827079,
              34.9702193
            ],
            [
              127.4826554,
              34.9702297
            ],
            [
              127.4826663,
              34.9702545
            ]
          ]
        ]
      }
    },
    {
      "type": "Feature",
      "properties": {
        "id": "CW_005",
        "source": "satellite_image_digitized"
      },
      "geometry": {
        "type": "Polygon",
        "coordinates": [
          [
            [
              127.4827713,
              34.9701935
            ],
            [
              127.4828154,
              34.9701852
            ],
            [
              127.4828097,
              34.9701604
            ],
            [
              127.4827591,
              34.9701708
            ],
            [
              127.4827713,
              34.9701935
            ]
          ]
        ]
      }
    },
    {
      "type": "Feature",
      "properties": {
        "id": "CW_006",
        "source": "satellite_image_digitized"
      },
      "geometry": {
        "type": "Polygon",
        "coordinates": [
          [
            [
              127.4827171,
              34.9700234
            ],
            [
              127.482763,
              34.970014
            ],
            [
              127.4827572,
              34.9699975
            ],
            [
              127.4827118,
              34.9700069
            ],
            [
              127.4827171,
              34.9700234
            ]
          ]
        ]
      }
    },
    {
      "type": "Feature",
      "properties": {
        "id": "CW_007",
        "source": "satellite_image_digitized"
      },
      "geometry": {
        "type": "Polygon",
        "coordinates": [
          [
            [
              127.4824089,
              34.9708155
            ],
            [
              127.4824008,
              34.9707892
            ],
            [
              127.4824238,
              34.9707832
            ],
            [
              127.4824348,
              34.9708158
            ],
            [
              127.4824089,
              34.9708155
            ]
          ]
        ]
      }
    },
    {
      "type": "Feature",
      "properties": {
        "id": "CW_008",
        "source": "satellite_image_digitized"
      },
      "geometry": {
        "type": "Polygon",
        "coordinates": [
          [
            [
              127.4817552,
              34.969077
            ],
            [
              127.481715,
              34.9689683
            ],
            [
              127.4817794,
              34.9689526
            ],
            [
              127.4818196,
              34.9690642
            ],
            [
              127.4817552,
              34.969077
            ]
          ]
        ]
      }
    },
    {
      "type": "Feature",
      "properties": {
        "id": "CW_009",
        "source": "satellite_image_digitized"
      },
      "geometry": {
        "type": "Polygon",
        "coordinates": [
          [
            [
              127.4818434,
              34.9689149
            ],
            [
              127.481837,
              34.9688846
            ],
            [
              127.4819325,
              34.9688698
            ],
            [
              127.4819446,
              34.9688993
            ],
            [
              127.4818434,
              34.9689149
            ]
          ]
        ]
      }
    },
    {
      "type": "Feature",
      "properties": {
        "id": "CW_010",
        "source": "satellite_image_digitized"
      },
      "geometry": {
        "type": "Polygon",
        "coordinates": [
          [
            [
              127.4812772,
              34.9690495
            ],
            [
              127.4812828,
              34.9690191
            ],
            [
              127.4815794,
              34.9689511
            ],
            [
              127.4815908,
              34.9689799
            ],
            [
              127.4812772,
              34.9690495
            ]
          ]
        ]
      }
    },
    {
      "type": "Feature",
      "properties": {
        "id": "CW_011",
        "source": "satellite_image_digitized"
      },
      "geometry": {
        "type": "Polygon",
        "coordinates": [
          [
            [
              127.4814415,
              34.9691879
            ],
            [
              127.4814305,
              34.9691623
            ],
            [
              127.4815244,
              34.9691431
            ],
            [
              127.4815372,
              34.9691683
            ],
            [
              127.4814415,
              34.9691879
            ]
          ]
        ]
      }
    },
    {
      "type": "Feature",
      "properties": {
        "id": "CW_012",
        "source": "satellite_image_digitized"
      },
      "geometry": {
        "type": "Polygon",
        "coordinates": [
          [
            [
              127.4810057,
              34.9692434
            ],
            [
              127.4809728,
              34.9691252
            ],
            [
              127.481026,
              34.9691135
            ],
            [
              127.4810627,
              34.96923
            ],
            [
              127.4810057,
              34.9692434
            ]
          ]
        ]
      }
    },
    {
      "type": "Feature",
      "properties": {
        "id": "CW_013",
        "source": "satellite_image_digitized"
      },
      "geometry": {
        "type": "Polygon",
        "coordinates": [
          [
            [
              127.4806032,
              34.9695862
            ],
            [
              127.4805907,
              34.9695498
            ],
            [
              127.4806985,
              34.9695324
            ],
            [
              127.4807092,
              34.969567
            ],
            [
              127.4806032,
              34.9695862
            ]
          ]
        ]
      }
    },
    {
      "type": "Feature",
      "properties": {
        "id": "CW_014",
        "source": "satellite_image_digitized"
      },
      "geometry": {
        "type": "Polygon",
        "coordinates": [
          [
            [
              127.4790513,
              34.9705207
            ],
            [
              127.4790284,
              34.9704458
            ],
            [
              127.4790703,
              34.97044
            ],
            [
              127.4790942,
              34.9705099
            ],
            [
              127.4790513,
              34.9705207
            ]
          ]
        ]
      }
    },
    {
      "type": "Feature",
      "properties": {
        "id": "CW_015",
        "source": "satellite_image_digitized"
      },
      "geometry": {
        "type": "Polygon",
        "coordinates": [
          [
            [
              127.4788903,
              34.970625
            ],
            [
              127.4788752,
              34.9705881
            ],
            [
              127.4790174,
              34.9705601
            ],
            [
              127.4790252,
              34.9705978
            ],
            [
              127.4788903,
              34.970625
            ]
          ]
        ]
      }
    },
    {
      "type": "Feature",
      "properties": {
        "id": "CW_016",
        "source": "satellite_image_digitized"
      },
      "geometry": {
        "type": "Polygon",
        "coordinates": [
          [
            [
              127.4787185,
              34.9698405
            ],
            [
              127.4788134,
              34.9698755
            ],
            [
              127.4788321,
              34.9698344
            ],
            [
              127.4787486,
              34.9698043
            ],
            [
              127.4787185,
              34.9698405
            ]
          ]
        ]
      }
    },
    {
      "type": "Feature",
      "properties": {
        "id": "CW_017",
        "source": "satellite_image_digitized"
      },
      "geometry": {
        "type": "Polygon",
        "coordinates": [
          [
            [
              127.4789217,
              34.9692914
            ],
            [
              127.4789875,
              34.9692784
            ],
            [
              127.4789833,
              34.9692386
            ],
            [
              127.4789127,
              34.969256
            ],
            [
              127.4789217,
              34.9692914
            ]
          ]
        ]
      }
    },
    {
      "type": "Feature",
      "properties": {
        "id": "CW_018",
        "source": "satellite_image_digitized"
      },
      "geometry": {
        "type": "Polygon",
        "coordinates": [
          [
            [
              127.4804216,
              34.9690222
            ],
            [
              127.4804078,
              34.968989
            ],
            [
              127.4804954,
              34.9689689
            ],
            [
              127.4805127,
              34.9690063
            ],
            [
              127.4804216,
              34.9690222
            ]
          ]
        ]
      }
    },
    {
      "type": "Feature",
      "properties": {
        "id": "CW_019",
        "source": "satellite_image_digitized"
      },
      "geometry": {
        "type": "Polygon",
        "coordinates": [
          [
            [
              127.4802783,
              34.9685836
            ],
            [
              127.4802675,
              34.9685437
            ],
            [
              127.4803662,
              34.9685286
            ],
            [
              127.4803791,
              34.9685636
            ],
            [
              127.4802783,
              34.9685836
            ]
          ]
        ]
      }
    },
    {
      "type": "Feature",
      "properties": {
        "id": "CW_020",
        "source": "satellite_image_digitized"
      },
      "geometry": {
        "type": "Polygon",
        "coordinates": [
          [
            [
              127.4801662,
              34.9683282
            ],
            [
              127.4801749,
              34.9682932
            ],
            [
              127.4802771,
              34.9682723
            ],
            [
              127.4802862,
              34.9683068
            ],
            [
              127.4801662,
              34.9683282
            ]
          ]
        ]
      }
    },
    {
      "type": "Feature",
      "properties": {
        "id": "CW_021",
        "source": "satellite_image_digitized"
      },
      "geometry": {
        "type": "Polygon",
        "coordinates": [
          [
            [
              127.4802446,
              34.9681346
            ],
            [
              127.4802244,
              34.9680782
            ],
            [
              127.4802573,
              34.9680777
            ],
            [
              127.4802726,
              34.9681193
            ],
            [
              127.4802446,
              34.9681346
            ]
          ]
        ]
      }
    },
    {
      "type": "Feature",
      "properties": {
        "id": "CW_022",
        "source": "satellite_image_digitized"
      },
      "geometry": {
        "type": "Polygon",
        "coordinates": [
          [
            [
              127.4806565,
              34.9680384
            ],
            [
              127.4806431,
              34.9679896
            ],
            [
              127.480679,
              34.9679863
            ],
            [
              127.4806955,
              34.9680336
            ],
            [
              127.4806565,
              34.9680384
            ]
          ]
        ]
      }
    },
    {
      "type": "Feature",
      "properties": {
        "id": "CW_023",
        "source": "satellite_image_digitized"
      },
      "geometry": {
        "type": "Polygon",
        "coordinates": [
          [
            [
              127.4814515,
              34.9678686
            ],
            [
              127.4814395,
              34.9678308
            ],
            [
              127.4814915,
              34.9678159
            ],
            [
              127.481513,
              34.9678663
            ],
            [
              127.4814515,
              34.9678686
            ]
          ]
        ]
      }
    },
    {
      "type": "Feature",
      "properties": {
        "id": "CW_024",
        "source": "satellite_image_digitized"
      },
      "geometry": {
        "type": "Polygon",
        "coordinates": [
          [
            [
              127.4769013,
              34.9700355
            ],
            [
              127.4769931,
              34.9700616
            ],
            [
              127.4769206,
              34.9699792
            ],
            [
              127.4770191,
              34.9700117
            ],
            [
              127.4769013,
              34.9700355
            ]
          ]
        ]
      }
    },
    {
      "type": "Feature",
      "properties": {
        "id": "CW_025",
        "source": "satellite_image_digitized"
      },
      "geometry": {
        "type": "Polygon",
        "coordinates": [
          [
            [
              127.4769217,
              34.9699785
            ],
            [
              127.4770088,
              34.9700061
            ],
            [
              127.4769798,
              34.9700549
            ],
            [
              127.4768965,
              34.9700315
            ],
            [
              127.4769217,
              34.9699785
            ]
          ]
        ]
      }
    },
    {
      "type": "Feature",
      "properties": {
        "id": "CW_026",
        "source": "satellite_image_digitized"
      },
      "geometry": {
        "type": "Polygon",
        "coordinates": [
          [
            [
              127.47743,
              34.9684004
            ],
            [
              127.4774344,
              34.9684256
            ],
            [
              127.4776042,
              34.9683996
            ],
            [
              127.4775982,
              34.9683685
            ],
            [
              127.47743,
              34.9684004
            ]
          ]
        ]
      }
    },
    {
      "type": "Feature",
      "properties": {
        "id": "CW_027",
        "source": "satellite_image_digitized"
      },
      "geometry": {
        "type": "Polygon",
        "coordinates": [
          [
            [
              127.4783466,
              34.9676794
            ],
            [
              127.47837,
              34.9677403
            ],
            [
              127.4784143,
              34.9677337
            ],
            [
              127.4783966,
              34.9676614
            ],
            [
              127.4783466,
              34.9676794
            ]
          ]
        ]
      }
    },
    {
      "type": "Feature",
      "properties": {
        "id": "CW_028",
        "source": "satellite_image_digitized"
      },
      "geometry": {
        "type": "Polygon",
        "coordinates": [
          [
            [
              127.4798177,
              34.9677172
            ],
            [
              127.4798356,
              34.9676606
            ],
            [
              127.4798753,
              34.9676679
            ],
            [
              127.4798584,
              34.9677492
            ],
            [
              127.4798177,
              34.9677172
            ]
          ]
        ]
      }
    },
    {
      "type": "Feature",
      "properties": {
        "id": "CW_029",
        "source": "satellite_image_digitized"
      },
      "geometry": {
        "type": "Polygon",
        "coordinates": [
          [
            [
              127.4798572,
              34.9677259
            ],
            [
              127.4798727,
              34.9676697
            ],
            [
              127.4798345,
              34.9676621
            ],
            [
              127.4798165,
              34.9677187
            ],
            [
              127.4798572,
              34.9677259
            ]
          ]
        ]
      }
    },
    {
      "type": "Feature",
      "properties": {
        "id": "CW_030",
        "source": "satellite_image_digitized"
      },
      "geometry": {
        "type": "Polygon",
        "coordinates": [
          [
            [
              127.4800139,
              34.9679062
            ],
            [
              127.4800442,
              34.9678953
            ],
            [
              127.4800076,
              34.9678307
            ],
            [
              127.4799765,
              34.9678424
            ],
            [
              127.4800139,
              34.9679062
            ]
          ]
        ]
      }
    },
    {
      "type": "Feature",
      "properties": {
        "id": "CW_031",
        "source": "satellite_image_digitized"
      },
      "geometry": {
        "type": "Polygon",
        "coordinates": [
          [
            [
              127.4801162,
              34.9682143
            ],
            [
              127.4801496,
              34.9682111
            ],
            [
              127.4801152,
              34.9681086
            ],
            [
              127.4800823,
              34.968116
            ],
            [
              127.4801162,
              34.9682143
            ]
          ]
        ]
      }
    }
  ]
}