{
"type": "FeatureCollection",
"name": "walkways_wgs84",
"crs": { "type": "name", "properties": { "name": "urn:ogc:def:crs:OGC:1.3:CRS84" } },
"features": [
{ "type": "Feature", "properties": { }, "geometry": { "type": "MultiLineString", "coordinates": [ [ [ 127.476928439143208, 34.970181154136029 ], [ 127.477573085975592, 34.970038225154966 ], [ 127.477655861946857, 34.970307706198966 ], [ 127.477593468222011, 34.970322665024227 ], [ 127.476981922407049, 34.970415907236742 ], [ 127.476977382564129, 34.970391683565367 ], [ 127.47696981120923, 34.97036901872729 ], [ 127.476961353611244, 34.970354150762731 ], [ 127.476954156257392, 34.970348951368997 ], [ 127.476947845356833, 34.970335227376985 ], [ 127.476931466192696, 34.970195501269068 ], [ 127.476928691732482, 34.97018115418404 ] ] ] } },
{ "type": "Feature", "properties": { "gid": 47700, "ufid": "100034702020A00310100000000047700", "widt": 5.0, "qual": "SWQ999", "byyn": "BYC002", "kind": "SWK001", "scls": "A0033324", "fmta": "R24027700", "명칭": "정문 보도" }, "geometry": { "type": "MultiLineString", "coordinates": [ [ [ 127.483666133261067, 34.970511069685649 ], [ 127.483623821160293, 34.970523946367003 ] ] ] } },
{ "type": "Feature", "properties": { "gid": 47701, "ufid": "100034702020A00310100000000047701", "widt": 5.0, "qual": "SWQ003", "byyn": "BYC001", "kind": "SWK001", "scls": "A0033324", "fmta": "R24027701" }, "geometry": { "type": "MultiLineString", "coordinates": [ [ [ 127.483666133261067, 34.970511069685649 ], [ 127.483623821160293, 34.970523946367003 ] ] ] } },
{ "type": "Feature", "properties": { "gid": 47297, "ufid": "100034702020A00310100000000047297", "widt": 1.5, "qual": "SWQ003", "byyn": "BYC002", "kind": "SWK001", "scls": "A0033324", "fmta": "R24027297" }, "geometry": { "type": "MultiLineString", "coordinates": [ [ [ 127.481991278150474, 34.966271739452949 ], [ 127.481986636117711, 34.966285098178481 ] ] ] } },
{ "type": "Feature", "properties": { "gid": 47298, "ufid": "100034702020A00310100000000047298", "widt": 1.5, "qual": "SWQ003", "byyn": "BYC002", "kind": "SWK001", "scls": "A0033324", "fmta": "R24027298" }, "geometry": { "type": "MultiLineString", "coordinates": [ [ [ 127.481991278150474, 34.966271739452949 ], [ 127.481986636117711, 34.966285098178481 ] ] ] } },
{ "type": "Feature", "properties": { "gid": 47308, "ufid": "100034702020A00310100000000047308", "widt": 1.5, "qual": "SWQ003", "byyn": "BYC002", "kind": "SWK001", "scls": "A0033324", "fmta": "R24027308" }, "geometry": { "type": "MultiLineString", "coordinates": [ [ [ 127.481986636117711, 34.966285098178481 ], [ 127.482112215350512, 34.966304691008787 ], [ 127.48245919098828, 34.966357352369577 ], [ 127.482539891174781, 34.966370858674452 ], [ 127.482542782290736, 34.966359135449267 ], [ 127.482399528834108, 34.966336746885318 ], [ 127.482115274510164, 34.966291193176033 ], [ 127.481991278150474, 34.966271739452949 ] ] ] } },
{ "type": "Feature", "properties": { "gid": 47310, "ufid": "100034702020A00310100000000047310", "widt": 1.5, "qual": "SWQ003", "byyn": "BYC002", "kind": "SWK001", "scls": "A0033324", "fmta": "R24027310" }, "geometry": { "type": "MultiLineString", "coordinates": [ [ [ 127.481991278150474, 34.966271739452949 ], [ 127.482002099646465, 34.966217417883286 ], [ 127.481990183768644, 34.966221937487227 ], [ 127.481987490812102, 34.966223823547139 ], [ 127.481982241693203, 34.966228203466017 ], [ 127.481946368708137, 34.966378695565815 ], [ 127.481949636630361, 34.966387424081603 ], [ 127.481953644814553, 34.966392272480718 ], [ 127.48195755161079, 34.96639490436521 ], [ 127.481964218182398, 34.966395688975417 ], [ 127.481961050998905, 34.966392132908133 ], [ 127.481960443549397, 34.966389805403331 ], [ 127.481959836349191, 34.966386340792894 ], [ 127.481986636117711, 34.966285098178481 ] ] ] } },
{ "type": "Feature", "properties": { "gid": 47318, "ufid": "100034702020A00310100000000047318", "widt": 3.3, "qual": "SWQ003", "byyn": "BYC002", "kind": "SWK001", "scls": "A0033324", "fmta": "R24027318" }, "geometry": { "type": "MultiLineString", "coordinates": [ [ [ 127.483294374981469, 34.966556909982174 ], [ 127.483291192396536, 34.966542571733164 ], [ 127.483276721716081, 34.966532372762224 ], [ 127.483183498264495, 34.966513958796803 ], [ 127.483170467086367, 34.966514002079172 ], [ 127.483150902592669, 34.966525743747226 ], [ 127.483146378832259, 34.966534766021383 ], [ 127.483147219140861, 34.96653953999791 ], [ 127.483202246763383, 34.966550011518294 ], [ 127.483202729107759, 34.966548260388194 ], [ 127.483240408011454, 34.96655573568345 ], [ 127.483240138340051, 34.966556702321313 ], [ 127.48329071621157, 34.966567948691704 ], [ 127.483294172109382, 34.966563382709538 ], [ 127.483294374981469, 34.966556909982174 ] ] ] } },
{ "type": "Feature", "properties": { "gid": 47324, "ufid": "100034702020A00310100000000047324", "widt": 3.5, "qual": "SWQ003", "byyn": "BYC002", "kind": "SWK001", "scls": "A0033324", "fmta": "R24027324" }, "geometry": { "type": "MultiLineString", "coordinates": [ [ [ 127.483389193348032, 34.966554098709508 ], [ 127.483378878827011, 34.966554095494814 ], [ 127.483358166711554, 34.96656403895134 ], [ 127.483354487492761, 34.966567901540408 ], [ 127.483352075750162, 34.966576835740192 ], [ 127.483406354025121, 34.966587940093213 ], [ 127.483441213845722, 34.966592902667863 ], [ 127.483443374365294, 34.966580319955114 ], [ 127.48344241572191, 34.966575601872989 ], [ 127.483439807254925, 34.96657144715909 ], [ 127.483423636573519, 34.96656064109672 ], [ 127.483400024873603, 34.966554280540308 ], [ 127.483389193348032, 34.966554098709508 ] ] ] } },
{ "type": "Feature", "properties": { "gid": 47326, "ufid": "100034702020A00310100000000047326", "widt": 1.5, "qual": "SWQ003", "byyn": "BYC002", "kind": "SWK001", "scls": "A0033324", "fmta": "R24027326" }, "geometry": { "type": "MultiLineString", "coordinates": [ [ [ 127.482168213498767, 34.966485808347045 ], [ 127.482153871543375, 34.966483816080071 ], [ 127.482157467488292, 34.966490401180643 ], [ 127.48216775109789, 34.966552140043746 ], [ 127.482174180371473, 34.966556160985213 ], [ 127.48252596533014, 34.96661210883282 ], [ 127.482530305039077, 34.96659836048827 ], [ 127.482216712247478, 34.966546905355159 ], [ 127.482168213498767, 34.966485808347045 ] ] ] } },
{ "type": "Feature", "properties": { "gid": 47334, "ufid": "100034702020A00310100000000047334", "widt": 1.5, "qual": "SWQ003", "byyn": "BYC002", "kind": "SWK001", "scls": "A0033324", "fmta": "R24027334" }, "geometry": { "type": "MultiLineString", "coordinates": [ [ [ 127.481961280996387, 34.96646228992774 ], [ 127.481948151861161, 34.96645949075112 ], [ 127.481944684547059, 34.966460849171661 ], [ 127.481941789926552, 34.966463177959319 ], [ 127.481877594048171, 34.966685509973729 ], [ 127.481936007420998, 34.966696665196835 ], [ 127.481917193100202, 34.966678380335523 ], [ 127.481913784509658, 34.966666694962989 ], [ 127.481961280996387, 34.96646228992774 ] ] ] } },
{ "type": "Feature", "properties": { "gid": 47349, "ufid": "100034702020A00310100000000047349", "widt": 3.3, "qual": "SWQ003", "byyn": "BYC002", "kind": "SWK001", "scls": "A0033324", "fmta": "R24027349" }, "geometry": { "type": "MultiLineString", "coordinates": [ [ [ 127.481692960591914, 34.966780765601293 ], [ 127.481654754315912, 34.966770660246191 ], [ 127.481613880424533, 34.966825453357444 ], [ 127.481546943972418, 34.96690001965802 ], [ 127.481530268092285, 34.96691535587486 ], [ 127.481519314173696, 34.966923423059214 ], [ 127.48155282998998, 34.966933004729853 ], [ 127.481559737832498, 34.96693273345069 ], [ 127.481587262757358, 34.966908008060287 ], [ 127.481627276427659, 34.96685977054446 ], [ 127.481695848769732, 34.966787785251576 ], [ 127.481692960591914, 34.966780765601293 ] ] ] } },
{ "type": "Feature", "properties": { "gid": 47352, "ufid": "100034702020A00310100000000047352", "widt": 2.0, "qual": "SWQ003", "byyn": "BYC002", "kind": "SWK001", "scls": "A0033324", "fmta": "R24027352" }, "geometry": { "type": "MultiLineString", "coordinates": [ [ [ 127.483331649954536, 34.966947067673651 ], [ 127.482883857801994, 34.96686278563287 ], [ 127.48287962363824, 34.966880170758387 ], [ 127.48331722181544, 34.966964402720208 ], [ 127.483326749833026, 34.966964582574995 ], [ 127.483330875665629, 34.966962402712092 ], [ 127.483334221611116, 34.966959928771843 ], [ 127.483337541822905, 34.96695470449329 ], [ 127.483338666992594, 34.966948489793062 ], [ 127.483331649954536, 34.966947067673651 ] ] ] } },
{ "type": "Feature", "properties": { "gid": 47365, "ufid": "100034702020A00310100000000047365", "widt": 5.0, "qual": "SWQ003", "byyn": "BYC002", "kind": "SWK001", "scls": "A0033324", "fmta": "R24027365" }, "geometry": { "type": "MultiLineString", "coordinates": [ [ [ 127.484250237713894, 34.967121844638697 ], [ 127.483946071553888, 34.967063620356456 ], [ 127.483892481290013, 34.967050132112213 ], [ 127.483889297868103, 34.967050631258935 ], [ 127.48388721227937, 34.967050053862849 ], [ 127.483472177574214, 34.966972575718643 ], [ 127.483448910267015, 34.966963482919347 ], [ 127.48340861924936, 34.966958003804855 ], [ 127.483411303575934, 34.966966282228007 ], [ 127.48342539691248, 34.966979503793581 ], [ 127.483434597317896, 34.966985525125637 ], [ 127.483468198579942, 34.96699633265802 ], [ 127.483871716426961, 34.967071785761746 ], [ 127.484268051823904, 34.967143793715891 ] ] ] } },
{ "type": "Feature", "properties": { "gid": 47366, "ufid": "100034702020A00310100000000047366", "widt": 5.0, "qual": "SWQ003", "byyn": "BYC002", "kind": "SWK001", "scls": "A0033324", "fmta": "R24027366" }, "geometry": { "type": "MultiLineString", "coordinates": [ [ [ 127.484268051823904, 34.967143793715891 ], [ 127.484250237713894, 34.967121844638697 ] ] ] } },
{ "type": "Feature", "properties": { "gid": 47367, "ufid": "100034702020A00310100000000047367", "widt": 5.0, "qual": "SWQ003", "byyn": "BYC001", "kind": "SWK001", "scls": "A0033324", "fmta": "R24027367" }, "geometry": { "type": "MultiLineString", "coordinates": [ [ [ 127.484268051823904, 34.967143793715891 ], [ 127.484250237713894, 34.967121844638697 ] ] ] } },
{ "type": "Feature", "properties": { "gid": 47368, "ufid": "100034702020A00310100000000047368", "widt": 5.0, "qual": "SWQ003", "byyn": "BYC001", "kind": "SWK001", "scls": "A0033324", "fmta": "R24027368" }, "geometry": { "type": "MultiLineString", "coordinates": [ [ [ 127.484268051823904, 34.967143793715891 ], [ 127.484270783974992, 34.967143052832064 ], [ 127.484309027382437, 34.96712187208702 ], [ 127.48431108534011, 34.967118014670469 ], [ 127.484381845425716, 34.966889610752446 ], [ 127.484401097403577, 34.966821285666178 ] ], [ [ 127.484401129479366, 34.966652055533508 ], [ 127.484385321389368, 34.966709755538652 ], [ 127.484269368573948, 34.967097737955555 ], [ 127.484259442401978, 34.967117328069314 ], [ 127.484256147682203, 34.967121270990837 ], [ 127.484250237713894, 34.967121844638697 ] ] ] } },
{ "type": "Feature", "properties": { "gid": 47523, "ufid": "100034702020A00310100000000047523", "widt": 4.5, "qual": "SWQ003", "byyn": "BYC002", "kind": "SWK001", "scls": "A0033324", "fmta": "R24027523" }, "geometry": { "type": "MultiLineString", "coordinates": [ [ [ 127.483800379071099, 34.968761216412396 ], [ 127.483801498854504, 34.968765617997676 ], [ 127.483784615980099, 34.968825405296968 ] ] ] } },
{ "type": "Feature", "properties": { "gid": 47396, "ufid": "100034702020A00310100000000047396", "widt": 2.0, "qual": "SWQ003", "byyn": "BYC002", "kind": "SWK001", "scls": "A0033324", "fmta": "R24027396" }, "geometry": { "type": "MultiLineString", "coordinates": [ [ [ 127.479976336813763, 34.967232932867162 ], [ 127.479980741150825, 34.967194060996171 ], [ 127.479967856897261, 34.967202095259005 ], [ 127.479955462240483, 34.967223866845941 ], [ 127.479954063225975, 34.967237955541798 ], [ 127.479955277357433, 34.967254342325425 ], [ 127.480001387574035, 34.967393671952813 ], [ 127.480023727770146, 34.967466408899966 ], [ 127.480024840356876, 34.967467963698226 ], [ 127.480027499906143, 34.967468672910336 ], [ 127.480030759891974, 34.967468817726257 ], [ 127.480048230708277, 34.96746558151532 ], [ 127.480047414203526, 34.967462730050883 ], [ 127.480033546797614, 34.967423198702932 ], [ 127.479976336813763, 34.967232932867162 ] ] ] } },
{ "type": "Feature", "properties": { "gid": 47414, "ufid": "100034702020A00310100000000047414", "widt": 2.2, "qual": "SWQ003", "byyn": "BYC002", "kind": "SWK001", "scls": "A0033324", "fmta": "R24027414" }, "geometry": { "type": "MultiLineString", "coordinates": [ [ [ 127.480059304965721, 34.967504273776171 ], [ 127.480057643497815, 34.967498469846895 ], [ 127.480036999699777, 34.967504129438908 ], [ 127.480034893909547, 34.967505609764579 ], [ 127.480033819909906, 34.967507550151829 ], [ 127.480066673552088, 34.967600992974113 ], [ 127.480072019302796, 34.967610004127096 ], [ 127.480079597815418, 34.967617958796289 ], [ 127.480088899384484, 34.967621679134389 ], [ 127.480125030971607, 34.96761417709088 ], [ 127.480109982900515, 34.967609745236366 ], [ 127.480100298184652, 34.967604964380321 ], [ 127.480085961213817, 34.967586301237077 ], [ 127.480059304965721, 34.967504273776171 ] ] ] } },
{ "type": "Feature", "properties": { "gid": 47426, "ufid": "100034702020A00310100000000047426", "widt": 2.5, "qual": "SWQ003", "byyn": "BYC002", "kind": "SWK001", "scls": "A0033324", "fmta": "R24027426" }, "geometry": { "type": "MultiLineString", "coordinates": [ [ [ 127.478404462338318, 34.967654795678556 ], [ 127.478402050548709, 34.967645043736425 ], [ 127.478102452419691, 34.967743131031973 ], [ 127.478119423544243, 34.967757521495187 ], [ 127.478124790706289, 34.967759398099851 ], [ 127.478129418933335, 34.967759440413872 ], [ 127.478134310180991, 34.967759050837316 ], [ 127.478177088092337, 34.967743113806868 ], [ 127.478232847483923, 34.967721047195873 ], [ 127.478288690881413, 34.967700167275844 ], [ 127.478343222564831, 34.967680975170182 ], [ 127.478406836699051, 34.967661075880478 ], [ 127.478404462338318, 34.967654795678556 ] ] ] } },
{ "type": "Feature", "properties": { "gid": 47443, "ufid": "100034702020A00310100000000047443", "widt": 3.0, "qual": "SWQ003", "byyn": "BYC002", "kind": "SWK001", "scls": "A0033324", "fmta": "R24027443" }, "geometry": { "type": "MultiLineString", "coordinates": [ [ [ 127.479579633792767, 34.967719991615546 ], [ 127.479602852975646, 34.967719079340533 ], [ 127.479655661578647, 34.967720664455534 ], [ 127.479750043479896, 34.967734659141691 ], [ 127.479880915247648, 34.967754757431322 ], [ 127.479916873232952, 34.9677676674103 ], [ 127.479937127427277, 34.96778774188595 ], [ 127.479973691761515, 34.967838920369601 ], [ 127.479979420782101, 34.967839502040491 ], [ 127.479992056574389, 34.96783554003455 ], [ 127.480000768268994, 34.967823481479215 ], [ 127.479964092227121, 34.967772149687825 ], [ 127.479942153651209, 34.9677503958819 ], [ 127.479921726238317, 34.967739903362656 ], [ 127.479890618450725, 34.96772873095675 ], [ 127.479755967594912, 34.967708054928273 ], [ 127.479659195559776, 34.967693708164262 ], [ 127.479602673459851, 34.967692010610307 ], [ 127.47956995234459, 34.967693294611273 ], [ 127.479540382845627, 34.967707652690756 ], [ 127.479518434039065, 34.967727525341516 ], [ 127.479488646400256, 34.967764363972734 ], [ 127.479446250887705, 34.967851090624897 ], [ 127.479446512506954, 34.96787378768974 ], [ 127.479459468113021, 34.967896504937109 ], [ 127.479517858659094, 34.967777040279117 ], [ 127.479544407171474, 34.967744204860587 ], [ 127.479561344304386, 34.967728868962574 ], [ 127.479579633792767, 34.967719991615546 ] ] ] } },
{ "type": "Feature", "properties": { "gid": 47444, "ufid": "100034702020A00310100000000047444", "widt": 5.7, "qual": "SWQ003", "byyn": "BYC001", "kind": "SWK001", "scls": "A0033324", "fmta": "R24027444" }, "geometry": { "type": "MultiLineString", "coordinates": [ [ [ 127.484400939213785, 34.967655865377353 ], [ 127.484389315372013, 34.967702758483377 ], [ 127.48433917366863, 34.967858788862671 ], [ 127.484351909410236, 34.967881155681461 ], [ 127.484373112013259, 34.96789682720101 ], [ 127.484387080869325, 34.967898046358677 ], [ 127.484400903243539, 34.967845632869881 ] ] ] } },
{ "type": "Feature", "properties": { "gid": 47524, "ufid": "100034702020A00310100000000047524", "widt": 4.3, "qual": "SWQ003", "byyn": "BYC002", "kind": "SWK001", "scls": "A0033324", "fmta": "R24027524" }, "geometry": { "type": "MultiLineString", "coordinates": [ [ [ 127.483800379071099, 34.968761216412396 ], [ 127.483801498854504, 34.968765617997676 ], [ 127.483784615980099, 34.968825405296968 ] ] ] } },
{ "type": "Feature", "properties": { "gid": 47462, "ufid": "100034702020A00310100000000047462", "widt": 2.5, "qual": "SWQ003", "byyn": "BYC002", "kind": "SWK001", "scls": "A0033324", "fmta": "R24027462" }, "geometry": { "type": "MultiLineString", "coordinates": [ [ [ 127.478021835308738, 34.967801814914949 ], [ 127.478018622271918, 34.967769404574831 ], [ 127.478005000415664, 34.967773673693294 ], [ 127.477937452062591, 34.967819225011155 ], [ 127.477815008432557, 34.967890610399735 ], [ 127.477719684053525, 34.967959562313233 ], [ 127.477638208438137, 34.968035425901924 ], [ 127.477633856579672, 34.96803819346966 ], [ 127.477625354551648, 34.968047286942969 ], [ 127.477641549189116, 34.968052861831964 ], [ 127.477646369067912, 34.968053152180616 ], [ 127.477654847943171, 34.968052667698309 ], [ 127.477664070020737, 34.968046339117485 ], [ 127.477689736827358, 34.968016083847459 ], [ 127.477719704106008, 34.967986649952408 ], [ 127.477769059044775, 34.967947181331397 ], [ 127.477866440846299, 34.967885494243319 ], [ 127.477913829924191, 34.96786015831546 ], [ 127.477968328441364, 34.967830544860249 ], [ 127.478019932260253, 34.967806913960771 ], [ 127.478021314302339, 34.967804329798426 ], [ 127.478021835308738, 34.967801814914949 ] ] ] } },
{ "type": "Feature", "properties": { "gid": 47464, "ufid": "100034702020A00310100000000047464", "widt": 5.0, "qual": "SWQ003", "byyn": "BYC001", "kind": "SWK001", "scls": "A0033324", "fmta": "R24027464" }, "geometry": { "type": "MultiLineString", "coordinates": [ [ [ 127.484356962657344, 34.96796775669258 ], [ 127.484335172079426, 34.967967807988799 ], [ 127.484318480622349, 34.967974500418684 ], [ 127.48430284629336, 34.968032736950988 ], [ 127.484309933827319, 34.968044191881525 ], [ 127.484328382579818, 34.968059525798566 ], [ 127.484349192050388, 34.968068958972168 ], [ 127.484374245074875, 34.967975629382039 ], [ 127.484356962657344, 34.96796775669258 ] ] ] } },
{ "type": "Feature", "properties": { "gid": 47471, "ufid": "100034702020A00310100000000047471", "widt": 3.0, "qual": "SWQ003", "byyn": "BYC002", "kind": "SWK001", "scls": "A0033324", "fmta": "R24027471" }, "geometry": { "type": "MultiLineString", "coordinates": [ [ [ 127.480047712569814, 34.967903842244439 ], [ 127.480035314532586, 34.96790307552385 ], [ 127.480023825307782, 34.967903978990492 ], [ 127.480016947852292, 34.967905068975263 ], [ 127.4800819322747, 34.968110972372052 ], [ 127.480115790141468, 34.968102604280055 ], [ 127.480116704011465, 34.968101493475039 ], [ 127.480052420047244, 34.96790688010811 ], [ 127.480050718241742, 34.967904764325596 ], [ 127.480047712569814, 34.967903842244439 ] ] ] } },
{ "type": "Feature", "properties": { "gid": 47494, "ufid": "100034702020A00310100000000047494", "widt": 4.2, "qual": "SWQ003", "byyn": "BYC002", "kind": "SWK001", "scls": "A0033324", "fmta": "R24027494" }, "geometry": { "type": "MultiLineString", "coordinates": [ [ [ 127.480183234177034, 34.968213272516834 ], [ 127.480127684059937, 34.968213258029287 ], [ 127.480137785560359, 34.968225287208327 ], [ 127.480138969278187, 34.968249890718226 ], [ 127.480135177620227, 34.968273882028562 ], [ 127.480126655868972, 34.968297648931021 ], [ 127.480104838440511, 34.968326831362589 ], [ 127.480085280600917, 34.968343701681739 ], [ 127.480064650585575, 34.968354907035369 ], [ 127.480040220701909, 34.968360564202044 ], [ 127.479809429231466, 34.968405535943944 ], [ 127.4792723973233, 34.968522095703598 ], [ 127.47928464632713, 34.968549521778954 ], [ 127.479291616515596, 34.968554549315641 ], [ 127.479297864678188, 34.968555715440381 ], [ 127.479820591621831, 34.968442258815756 ], [ 127.48005175785039, 34.968397214974573 ], [ 127.480084005308768, 34.968389750179682 ], [ 127.480114960199842, 34.96837293402897 ], [ 127.480141458060416, 34.968350070013734 ], [ 127.480169035013546, 34.968313192991516 ], [ 127.480180314756126, 34.968281725600939 ], [ 127.480185078446937, 34.968251591734486 ], [ 127.480183234177034, 34.968213272516834 ] ] ] } },
{ "type": "Feature", "properties": { "gid": 47502, "ufid": "100034702020A00310100000000047502", "widt": 4.2, "qual": "SWQ003", "byyn": "BYC002", "kind": "SWK001", "scls": "A0033324", "fmta": "R24027502" }, "geometry": { "type": "MultiLineString", "coordinates": [ [ [ 127.478913815417926, 34.968638327108373 ], [ 127.478977637854953, 34.968624420581747 ], [ 127.479176780888238, 34.968578294368498 ], [ 127.479181930301792, 34.968575173396893 ], [ 127.479191987960803, 34.968560929292629 ], [ 127.479188810834486, 34.968536190170909 ], [ 127.478804884812789, 34.968625110150519 ], [ 127.478783608874508, 34.968625339086671 ], [ 127.478756817655835, 34.968620071797226 ], [ 127.47879339505181, 34.968636152764198 ], [ 127.478819806724559, 34.96864346694921 ], [ 127.478850319200916, 34.968644500260446 ], [ 127.478913815417926, 34.968638327108373 ] ] ] } },
{ "type": "Feature", "properties": { "gid": 47512, "ufid": "100034702020A00310100000000047512", "widt": 5.0, "qual": "SWQ003", "byyn": "BYC001", "kind": "SWK001", "scls": "A0033324", "fmta": "R24027512" }, "geometry": { "type": "MultiLineString", "coordinates": [ [ [ 127.484193911806628, 34.968643953453189 ], [ 127.484313700733608, 34.968201084052147 ], [ 127.484239828227231, 34.968223695760628 ], [ 127.484236368103751, 34.968227356412008 ], [ 127.484199196942484, 34.96835519071589 ], [ 127.484198372449768, 34.968358914831434 ], [ 127.484198206626715, 34.968366756417964 ], [ 127.484205875785449, 34.968429960993056 ], [ 127.484145147220076, 34.968640888364675 ], [ 127.48414077845365, 34.968652780057681 ], [ 127.484132422238901, 34.968664660408628 ], [ 127.484098010492076, 34.968705788278093 ], [ 127.484095625743535, 34.968711176816704 ], [ 127.484092805625224, 34.96872468644802 ], [ 127.484091199247075, 34.968738309858601 ], [ 127.48409186015941, 34.968742147788106 ], [ 127.48410189965746, 34.968749572298947 ], [ 127.484131101567257, 34.968764608270774 ], [ 127.484158803691884, 34.968774568997674 ], [ 127.484179781130962, 34.968686077711055 ], [ 127.484193911806628, 34.968643953453189 ] ] ] } },
{ "type": "Feature", "properties": { "gid": 47532, "ufid": "100034702020A00310100000000047532", "widt": 5.0, "qual": "SWQ003", "byyn": "BYC001", "kind": "SWK001", "scls": "A0033324", "fmta": "R24027532" }, "geometry": { "type": "MultiLineString", "coordinates": [ [ [ 127.483715391101271, 34.968481060542274 ], [ 127.483769684792094, 34.968453943205077 ], [ 127.483806067633196, 34.968427882109637 ], [ 127.483849483118988, 34.968391261557777 ], [ 127.483906669700247, 34.968330980023829 ], [ 127.483950082027789, 34.96828197752118 ], [ 127.483986216776188, 34.968235394337214 ], [ 127.484020783928088, 34.968183021708022 ], [ 127.484048397560088, 34.968071992996315 ], [ 127.484043232496532, 34.968021350098979 ], [ 127.484098913868749, 34.96781762707009 ], [ 127.484141062827121, 34.96775694487711 ], [ 127.484162374254296, 34.967679215996142 ], [ 127.484163756416493, 34.967669301446492 ], [ 127.484162589236632, 34.967666396760862 ], [ 127.484151772435908, 34.967651555267047 ], [ 127.484214792823565, 34.967413004878303 ], [ 127.484254841540988, 34.967266428069323 ], [ 127.484256649400379, 34.967252923710255 ], [ 127.484254366708825, 34.967240461242724 ], [ 127.484245528446621, 34.967230582337628 ], [ 127.484234961365999, 34.967221882695213 ], [ 127.484222444280377, 34.967213887966281 ], [ 127.484201743847805, 34.967208289020753 ], [ 127.484225710906841, 34.967236524094844 ], [ 127.484226190100969, 34.967251116259881 ], [ 127.483998545385376, 34.968052826077319 ], [ 127.483984288663919, 34.968112202559922 ], [ 127.483966111945975, 34.968151492967962 ], [ 127.483954160136449, 34.968154010875843 ], [ 127.483901314722843, 34.968159556851916 ], [ 127.483874452223532, 34.968170552821064 ], [ 127.483871928496725, 34.968180803567328 ], [ 127.483870048613809, 34.968192473751785 ], [ 127.483867852073203, 34.968210104454265 ], [ 127.483865441072879, 34.96822646546574 ], [ 127.483863320222824, 34.968237966089205 ], [ 127.483859346220456, 34.968258875314142 ], [ 127.483854456703185, 34.968289516091012 ], [ 127.483842470585614, 34.968321589704288 ], [ 127.483826927020857, 34.968350710516717 ], [ 127.483808117000237, 34.968378891269261 ], [ 127.483788048956981, 34.968398151751124 ], [ 127.483762909047385, 34.96841702921008 ], [ 127.483732597302222, 34.968431399030393 ], [ 127.483705443160474, 34.968443109107682 ], [ 127.48367012632302, 34.968451757545971 ], [ 127.483649675574753, 34.968456202219713 ], [ 127.483632371218434, 34.968459336171257 ], [ 127.483615167909733, 34.96846112652819 ], [ 127.483603238276942, 34.968462021256471 ], [ 127.483595199884533, 34.968461908354051 ], [ 127.483491556611241, 34.968519117487801 ], [ 127.482818908991945, 34.968661201123808 ], [ 127.482261187453005, 34.96878367762131 ], [ 127.481928272931214, 34.968860201438211 ], [ 127.48194211366463, 34.968876768622188 ], [ 127.481955083797615, 34.968887055896673 ], [ 127.481968771395941, 34.96889262532666 ], [ 127.481985564882862, 34.968891964131778 ], [ 127.48252661417753, 34.968772177323181 ], [ 127.482869665108154, 34.968695680347494 ], [ 127.483530624545196, 34.968553136758274 ], [ 127.483567649168663, 34.968533921898931 ], [ 127.483603970585889, 34.968519750414551 ], [ 127.483667456884902, 34.968500556227539 ], [ 127.483715391101271, 34.968481060542274 ] ] ] } },
{ "type": "Feature", "properties": { "gid": 47538, "ufid": "100034702020A00310100000000047538", "widt": 5.0, "qual": "SWQ003", "byyn": "BYC001", "kind": "SWK001", "scls": "A0033324", "fmta": "R24027538" }, "geometry": { "type": "MultiLineString", "coordinates": [ [ [ 127.484138881619089, 34.968871897555346 ], [ 127.484122523467676, 34.968870391300825 ], [ 127.484103261146814, 34.968875159933809 ], [ 127.484088019339467, 34.968878933559921 ], [ 127.484052432044081, 34.968891859067789 ], [ 127.484049712156434, 34.968896840872624 ], [ 127.484048897803092, 34.968904707622059 ], [ 127.48405454364395, 34.968916741299225 ], [ 127.484067251542527, 34.968924938060013 ], [ 127.484114788316987, 34.968939200935409 ], [ 127.484138881619089, 34.968871897555346 ] ] ] } },
{ "type": "Feature", "properties": { "gid": 47542, "ufid": "100034702020A00310100000000047542", "widt": 4.3, "qual": "SWQ003", "byyn": "BYC002", "kind": "SWK001", "scls": "A0033324", "fmta": "R24027542" }, "geometry": { "type": "MultiLineString", "coordinates": [ [ [ 127.483800379071099, 34.968761216412396 ], [ 127.483776451154455, 34.968744074580478 ], [ 127.483727897048794, 34.96872339098438 ], [ 127.48367722367739, 34.9687116731724 ], [ 127.483579258886806, 34.96869799306095 ], [ 127.483225603308568, 34.968775479795276 ], [ 127.482791466637011, 34.968866274754348 ], [ 127.482550342036788, 34.968920512098357 ], [ 127.482535587780234, 34.968928730319355 ], [ 127.482522786132563, 34.968939714483064 ], [ 127.482515087498697, 34.9689489148194 ], [ 127.482512022571441, 34.968958466602842 ], [ 127.482513013837703, 34.968964197359028 ], [ 127.482772582782204, 34.968909992465058 ], [ 127.483026864937003, 34.968907828002848 ], [ 127.483263828082741, 34.9688509731659 ], [ 127.483352303061267, 34.968832205506018 ], [ 127.48361042107787, 34.968775877707898 ], [ 127.483617506473834, 34.968775898502372 ], [ 127.483624767038435, 34.968776442334359 ], [ 127.483685556787947, 34.968805638320987 ], [ 127.483689961204476, 34.968802168983196 ], [ 127.483736962366095, 34.96882650086188 ], [ 127.48375282088314, 34.968811822514141 ], [ 127.483784615980099, 34.968825405296968 ] ] ] } },
{ "type": "Feature", "properties": { "gid": 47543, "ufid": "100034702020A00310100000000047543", "widt": 5.0, "qual": "SWQ003", "byyn": "BYC002", "kind": "SWK001", "scls": "A0033324", "fmta": "R24027543" }, "geometry": { "type": "MultiLineString", "coordinates": [ [ [ 127.481837577407404, 34.968892506584659 ], [ 127.481837131819077, 34.968876428337232 ], [ 127.48158386027832, 34.968934931725315 ], [ 127.481597765453117, 34.968956996018598 ], [ 127.481609171594059, 34.968965712246529 ], [ 127.481638976054569, 34.968969009942811 ], [ 127.481835579006429, 34.968923593173166 ], [ 127.481837577407404, 34.968892506584659 ] ] ] } },
{ "type": "Feature", "properties": { "gid": 47547, "ufid": "100034702020A00310100000000047547", "widt": 4.2, "qual": "SWQ003", "byyn": "BYC002", "kind": "SWK001", "scls": "A0033324", "fmta": "R24027547" }, "geometry": { "type": "MultiLineString", "coordinates": [ [ [ 127.479735441928185, 34.968550472532662 ], [ 127.479716249477136, 34.968515485081021 ], [ 127.479081547291926, 34.96865345860455 ], [ 127.478972607001069, 34.968677963751723 ], [ 127.478931976457844, 34.968695791497893 ], [ 127.478901041379643, 34.96871082188693 ], [ 127.478870858296801, 34.968732339579766 ], [ 127.478830034507027, 34.968777263005812 ], [ 127.47870492859596, 34.96892358053239 ], [ 127.478669427010601, 34.968974413094024 ], [ 127.478665994129685, 34.969007129739538 ], [ 127.47867044930581, 34.969020002083859 ], [ 127.478684695036407, 34.969035384811797 ], [ 127.478685948293887, 34.969026719226235 ], [ 127.478743744121843, 34.968943952426621 ], [ 127.478867263295641, 34.968799506614928 ], [ 127.478904712126138, 34.968758292384884 ], [ 127.478928005737075, 34.968741686215978 ], [ 127.478954483962255, 34.968728819245001 ], [ 127.47899021071575, 34.968713147626289 ], [ 127.479101969349017, 34.96868551207664 ], [ 127.479137561913774, 34.968680441350344 ], [ 127.479735441928185, 34.968550472532662 ] ] ] } },
{ "type": "Feature", "properties": { "gid": 47554, "ufid": "100034702020A00310100000000047554", "widt": 3.0, "qual": "SWQ003", "byyn": "BYC002", "kind": "SWK001", "scls": "A0033324", "fmta": "R24027554" }, "geometry": { "type": "MultiLineString", "coordinates": [ [ [ 127.477614797595649, 34.969111016760827 ], [ 127.47756844681156, 34.968917097959668 ], [ 127.477565922182364, 34.968911620271307 ], [ 127.477560176635293, 34.968907157356895 ], [ 127.477553632582897, 34.968906411303067 ], [ 127.477449309578532, 34.968924268244017 ], [ 127.477447457888857, 34.968925611505831 ], [ 127.477447639275979, 34.968927285185224 ], [ 127.477453023151881, 34.968956342333612 ], [ 127.477539569613782, 34.968944720401176 ], [ 127.477542154754346, 34.968945224055069 ], [ 127.477543447108374, 34.968946268519105 ], [ 127.477586587224565, 34.969135555354818 ], [ 127.477613411038305, 34.969117990629989 ], [ 127.47761526534093, 34.969115101768821 ], [ 127.477614797595649, 34.969111016760827 ] ] ] } },
{ "type": "Feature", "properties": { "gid": 47555, "ufid": "100034702020A00310100000000047555", "widt": 3.0, "qual": "SWQ003", "byyn": "BYC002", "kind": "SWK001", "scls": "A0033324", "fmta": "R24027555" }, "geometry": { "type": "MultiLineString", "coordinates": [ [ [ 127.481016987670884, 34.969106194739737 ], [ 127.481233106859875, 34.969065687508802 ], [ 127.481239343023844, 34.969062113940275 ], [ 127.481266960681452, 34.969018554720996 ], [ 127.480856754370564, 34.969099009702774 ], [ 127.480840436342561, 34.969099322741535 ], [ 127.480825586231788, 34.969099625188889 ], [ 127.480809590638117, 34.969098353000113 ], [ 127.480792653651704, 34.969094076033507 ], [ 127.480783485226311, 34.969091657896449 ], [ 127.480762386528028, 34.96908298153663 ], [ 127.480756261622247, 34.969079137313059 ], [ 127.480751390406297, 34.969073221069273 ], [ 127.480748208654092, 34.969066167086197 ], [ 127.480680199451243, 34.969079559879511 ], [ 127.480673440396984, 34.969079878023138 ], [ 127.480666026631752, 34.969078607180847 ], [ 127.480658405393001, 34.969074513831458 ], [ 127.480577529812905, 34.969028387296184 ], [ 127.480571189145024, 34.969019774581312 ], [ 127.480563450450276, 34.969002834894297 ], [ 127.48051841342982, 34.968857162788225 ], [ 127.480445288519732, 34.968621882970112 ], [ 127.480439585352855, 34.96862289742085 ], [ 127.480414032946271, 34.968548755121276 ], [ 127.480411635668645, 34.96853215173514 ], [ 127.480411472054541, 34.9685291957761 ], [ 127.480413779980111, 34.968525392571749 ], [ 127.480417671716637, 34.968522476943619 ], [ 127.480415701596925, 34.968515365434619 ], [ 127.480388914230772, 34.968521224282838 ], [ 127.480377940487699, 34.968528371575047 ], [ 127.480373769754749, 34.968534432456742 ], [ 127.480372894307536, 34.968539786899811 ], [ 127.480373409698146, 34.968546757501556 ], [ 127.480406149168914, 34.968653787748799 ], [ 127.480458798499413, 34.968821245573757 ], [ 127.480515872291463, 34.969003871495403 ], [ 127.480520413882118, 34.969013872617708 ], [ 127.480530900367029, 34.969029166154748 ], [ 127.480541311090647, 34.969040582159046 ], [ 127.480565359400515, 34.969064965689199 ], [ 127.480584440841795, 34.969080372413472 ], [ 127.480615424432173, 34.969100506198522 ], [ 127.480650361250113, 34.969117255440736 ], [ 127.480685772206229, 34.969130231831535 ], [ 127.480701136028699, 34.96913487647651 ], [ 127.480713715412506, 34.969138593679702 ], [ 127.480737270869923, 34.969144152190459 ], [ 127.480751793902229, 34.969146585607753 ], [ 127.480780720203015, 34.969148308922072 ], [ 127.480802616160261, 34.969148683905743 ], [ 127.480818371236694, 34.969147921712292 ], [ 127.480843127325656, 34.969144076956283 ], [ 127.480962632725479, 34.969117667296345 ], [ 127.481016987670884, 34.969106194739737 ] ] ] } },
{ "type": "Feature", "properties": { "gid": 47559, "ufid": "100034702020A00310100000000047559", "widt": 5.0, "qual": "SWQ003", "byyn": "BYC001", "kind": "SWK001", "scls": "A0033324", "fmta": "R24027559" }, "geometry": { "type": "MultiLineString", "coordinates": [ [ [ 127.484098506518578, 34.968984683012799 ], [ 127.484062228563943, 34.968977446232117 ], [ 127.484052782081775, 34.968984927703346 ], [ 127.484002630760131, 34.969183129091022 ], [ 127.484003253728602, 34.9691905559757 ], [ 127.484041277559101, 34.969199733566469 ], [ 127.484098506518578, 34.968984683012799 ] ] ] } },
{ "type": "Feature", "properties": { "gid": 47595, "ufid": "100034702020A00310100000000047595", "widt": 6.6, "qual": "SWQ003", "byyn": "BYC002", "kind": "SWK001", "scls": "A0033324", "fmta": "R24027595", "명칭": "기념관앞보도" }, "geometry": { "type": "MultiLineString", "coordinates": [ [ [ 127.482408144329639, 34.968940015346291 ], [ 127.482396869967474, 34.968929405540017 ], [ 127.482381887787596, 34.968932747051916 ], [ 127.481562933820214, 34.969125394119743 ], [ 127.481555321759004, 34.969129010779845 ], [ 127.481537765445452, 34.969150696972932 ], [ 127.481537037514727, 34.969162893915744 ], [ 127.481599785915435, 34.969346968389146 ], [ 127.481696056317844, 34.969627275286626 ], [ 127.481705565212465, 34.969626147730082 ], [ 127.481736743765254, 34.96961896548595 ], [ 127.481663269983613, 34.969396824856311 ], [ 127.48168785091913, 34.969392597560358 ], [ 127.481675026516101, 34.969347517207943 ], [ 127.481616133629871, 34.969174749482804 ], [ 127.482401265111605, 34.968990068620386 ], [ 127.482424965365425, 34.968984786001236 ], [ 127.482411799855939, 34.968945200931209 ], [ 127.482408144329639, 34.968940015346291 ] ] ] } },
{ "type": "Feature", "properties": { "gid": 47638, "ufid": "100034702020A00310100000000047638", "widt": 6.2, "qual": "SWQ003", "byyn": "BYC002", "kind": "SWK001", "scls": "A0033324", "fmta": "R24027638" }, "geometry": { "type": "MultiLineString", "coordinates": [ [ [ 127.481088989007105, 34.969282110098632 ], [ 127.481411532215034, 34.969214364623326 ], [ 127.481431597796487, 34.969219071214333 ], [ 127.481449013383894, 34.969228980487443 ], [ 127.481440175740914, 34.96918776020253 ], [ 127.481422691035405, 34.969163798065196 ], [ 127.481409652200227, 34.969157081648824 ], [ 127.48101377569499, 34.969239530412978 ], [ 127.480945010886458, 34.969251357800275 ], [ 127.480872551147357, 34.969276983125695 ], [ 127.480813252263346, 34.969321294721134 ], [ 127.480755657197292, 34.969377787378839 ], [ 127.480707573868941, 34.969429996410263 ], [ 127.480691153890163, 34.969491029562818 ], [ 127.48069434285965, 34.969551418375758 ], [ 127.480824562781635, 34.969928274358388 ], [ 127.480860152028228, 34.970024101584237 ], [ 127.480866616523883, 34.970028295733925 ], [ 127.480896330278156, 34.970036903093451 ], [ 127.480927856579115, 34.970042789253064 ], [ 127.480953215112905, 34.970040363922145 ], [ 127.480920918867568, 34.969953410447623 ], [ 127.480895046246445, 34.969895950564762 ], [ 127.48077707485443, 34.969540771026431 ], [ 127.480774771446434, 34.969497053885526 ], [ 127.480785961466239, 34.96945545618577 ], [ 127.480818470047936, 34.969410159273622 ], [ 127.480863996275303, 34.969358853347394 ], [ 127.480909774817661, 34.969324644599006 ], [ 127.480965560298529, 34.969304917682919 ], [ 127.4810224104382, 34.969295137195907 ], [ 127.4810357445173, 34.969294607247093 ], [ 127.481088989007105, 34.969282110098632 ] ] ] } },
{ "type": "Feature", "properties": { "gid": 47647, "ufid": "100034702020A00310100000000047647", "widt": 4.5, "qual": "SWQ003", "byyn": "BYC002", "kind": "SWK001", "scls": "A0033324", "fmta": "R24027647" }, "geometry": { "type": "MultiLineString", "coordinates": [ [ [ 127.483292927121028, 34.969949468511594 ], [ 127.483285837143896, 34.969922965143816 ], [ 127.482777360368218, 34.970033901156484 ], [ 127.482798751276817, 34.970103749126594 ], [ 127.482802948695308, 34.970105812020101 ], [ 127.482805601912276, 34.970105892651411 ], [ 127.482808776673707, 34.970105496331485 ], [ 127.482814653043036, 34.97010426988335 ], [ 127.4828191305904, 34.970102582443495 ], [ 127.482821667140698, 34.970100033559021 ], [ 127.482821418094204, 34.970096578924895 ], [ 127.482809538389134, 34.970056567559958 ], [ 127.483292927121028, 34.969949468511594 ] ] ] } },
{ "type": "Feature", "properties": { "gid": 47655, "ufid": "100034702020A00310100000000047655", "widt": 3.0, "qual": "SWQ003", "byyn": "BYC002", "kind": "SWK001", "scls": "A0033324", "fmta": "R24027655" }, "geometry": { "type": "MultiLineString", "coordinates": [ [ [ 127.477541096942772, 34.969256841172047 ], [ 127.477534360564547, 34.969230177019938 ], [ 127.477523918430748, 34.969230921735758 ], [ 127.477132149523129, 34.969338896128548 ], [ 127.477116906854178, 34.969348249801961 ], [ 127.477105001044052, 34.969357301114997 ], [ 127.477032044425641, 34.969478705997105 ], [ 127.477023467190875, 34.969493512891511 ], [ 127.477019637448734, 34.969509202593912 ], [ 127.477018904226071, 34.969522248955052 ], [ 127.477063132374937, 34.969805702168216 ], [ 127.477062790797135, 34.96981281509693 ], [ 127.477062553404323, 34.969815583420399 ], [ 127.47706101204065, 34.9698196554261 ], [ 127.476948563093728, 34.970129332480141 ], [ 127.476933440114948, 34.970180065590952 ], [ 127.476938590711541, 34.97017338461216 ], [ 127.476954447046751, 34.970163930083061 ], [ 127.47696882293809, 34.970152192043692 ], [ 127.476978365258915, 34.970141672250499 ], [ 127.477092430067827, 34.969827553460519 ], [ 127.477095050164678, 34.969820630328712 ], [ 127.477095595278968, 34.969814300156123 ], [ 127.477096062485259, 34.969804500040055 ], [ 127.477051845150584, 34.96952114603323 ], [ 127.477052331754379, 34.969512509176326 ], [ 127.477054867363833, 34.969502123314122 ], [ 127.477061590177001, 34.969490515471598 ], [ 127.477131749846777, 34.969373772086108 ], [ 127.477137918604583, 34.96936907874381 ], [ 127.477147564698654, 34.969363163284356 ], [ 127.477530643851068, 34.969257585886439 ], [ 127.477541096942772, 34.969256841172047 ] ] ] } },
{ "type": "Feature", "properties": { "gid": 47660, "ufid": "100034702020A00310100000000047660", "widt": 3.0, "qual": "SWQ003", "byyn": "BYC002", "kind": "SWK001", "scls": "A0033324", "fmta": "R24027660" }, "geometry": { "type": "MultiLineString", "coordinates": [ [ [ 127.48070976862158, 34.969927718736329 ], [ 127.480698882791501, 34.969923669958881 ], [ 127.480686439752674, 34.96992662030565 ], [ 127.480642325281593, 34.9699913876888 ], [ 127.480599515333196, 34.970042701174442 ], [ 127.480550775513493, 34.970089495934502 ], [ 127.480498350297026, 34.970127768558676 ], [ 127.480443160325351, 34.970164915332511 ], [ 127.480425370068133, 34.970173179697383 ], [ 127.480412874590257, 34.970193735746918 ], [ 127.480414846818533, 34.970210566300565 ], [ 127.480417174207503, 34.970208032762365 ], [ 127.480461762710036, 34.970187323172176 ], [ 127.480519647980969, 34.970148362504233 ], [ 127.480574253565152, 34.970108503142256 ], [ 127.480625596811478, 34.97005921094464 ], [ 127.480670245470947, 34.970005690262028 ], [ 127.480719731770677, 34.96993303251962 ], [ 127.48070976862158, 34.969927718736329 ] ] ] } },
{ "type": "Feature", "properties": { "gid": 47662, "ufid": "100034702020A00310100000000047662", "widt": 4.5, "qual": "SWQ003", "byyn": "BYC002", "kind": "SWK001", "scls": "A0033324", "fmta": "R24027662" }, "geometry": { "type": "MultiLineString", "coordinates": [ [ [ 127.482835819535453, 34.970215625301904 ], [ 127.483390621545581, 34.970094056562537 ], [ 127.483385355750528, 34.970077089442206 ], [ 127.482849950202166, 34.970193875318834 ], [ 127.48283668894932, 34.97014922787254 ], [ 127.482821103236773, 34.970156489253775 ], [ 127.482818633242161, 34.970160314121891 ], [ 127.482818487209656, 34.970161916508481 ], [ 127.482819449026394, 34.970167204498303 ], [ 127.482835819535453, 34.970215625301904 ] ] ] } },
{ "type": "Feature", "properties": { "gid": 47669, "ufid": "100034702020A00310100000000047669", "widt": 3.0, "qual": "SWQ003", "byyn": "BYC002", "kind": "SWK001", "scls": "A0033324", "fmta": "R24027669" }, "geometry": { "type": "MultiLineString", "coordinates": [ [ [ 127.480321993740532, 34.970222786215288 ], [ 127.480300404376564, 34.970221808826658 ], [ 127.48015677882789, 34.970258854524239 ], [ 127.480140831426795, 34.970265804398956 ], [ 127.480132649584291, 34.970278357204364 ], [ 127.480131817709477, 34.970293665151999 ], [ 127.480337142094939, 34.970240527866963 ], [ 127.480321993740532, 34.970222786215288 ] ] ] } },
{ "type": "Feature", "properties": { "gid": 47674, "ufid": "100034702020A00310100000000047674", "widt": 5.5, "qual": "SWQ003", "byyn": "BYC002", "kind": "SWK001", "scls": "A0033324", "fmta": "R24027674" }, "geometry": { "type": "MultiLineString", "coordinates": [ [ [ 127.479674912177913, 34.970260361910547 ], [ 127.479675067935347, 34.970241811164939 ], [ 127.479442371060273, 34.970288285992083 ], [ 127.479460902457816, 34.97031322608251 ], [ 127.479470123957952, 34.970322843888439 ], [ 127.479484413684801, 34.970330231624018 ], [ 127.479515491505282, 34.970324692919938 ], [ 127.479650403744472, 34.970297749712479 ], [ 127.479658971587128, 34.970292775299257 ], [ 127.479670105847873, 34.970275624102392 ], [ 127.479674912177913, 34.970260361910547 ] ] ] } },
{ "type": "Feature", "properties": { "gid": 47683, "ufid": "100034702020A00310100000000047683", "widt": 3.0, "qual": "SWQ003", "byyn": "BYC002", "kind": "SWK001", "scls": "A0033324", "fmta": "R24027683" }, "geometry": { "type": "MultiLineString", "coordinates": [ [ [ 127.479925144655411, 34.970323830723544 ], [ 127.47990771381825, 34.970322341759271 ], [ 127.479841473836387, 34.970335294319341 ], [ 127.479834614548494, 34.97034187414156 ], [ 127.479832171609146, 34.97035093270194 ], [ 127.479834199293521, 34.970364509764963 ], [ 127.479934792857065, 34.970344850273548 ], [ 127.479933982343439, 34.970335298818867 ], [ 127.479925144655411, 34.970323830723544 ] ] ] } },
{ "type": "Feature", "properties": { "gid": 47684, "ufid": "100034702020A00310100000000047684", "widt": 4.5, "qual": "SWQ003", "byyn": "BYC002", "kind": "SWK001", "scls": "A0033324", "fmta": "R24027684" }, "geometry": { "type": "MultiLineString", "coordinates": [ [ [ 127.482810710368724, 34.970361570659051 ], [ 127.482758805288427, 34.970195920203459 ], [ 127.482742135962951, 34.97019878719977 ], [ 127.482792124765425, 34.970365676393435 ], [ 127.482810710368724, 34.970361570659051 ] ] ] } },
{ "type": "Feature", "properties": { "gid": 47688, "ufid": "100034702020A00310100000000047688", "widt": 3.0, "qual": "SWQ003", "byyn": "BYC002", "kind": "SWK001", "scls": "A0033324", "fmta": "R24027688" }, "geometry": { "type": "MultiLineString", "coordinates": [ [ [ 127.479104544631042, 34.97041599167806 ], [ 127.47927440641557, 34.970374850553945 ], [ 127.479276317165599, 34.970373896830054 ], [ 127.479285052042457, 34.97035826741083 ], [ 127.479285460962714, 34.970343989193907 ], [ 127.47909751401761, 34.970389509720214 ], [ 127.479054245779281, 34.970394683712414 ], [ 127.479015242004266, 34.970396424567667 ], [ 127.478975310034798, 34.970395147999028 ], [ 127.478950662456413, 34.970384104523639 ], [ 127.478928341178658, 34.970366444415973 ], [ 127.478842280093062, 34.970138366417785 ], [ 127.478800658876651, 34.970061155051624 ], [ 127.478772201764428, 34.969963658431681 ], [ 127.478879328887601, 34.969728986207059 ], [ 127.479034158398548, 34.969374241660162 ], [ 127.479007764737986, 34.969260970248484 ], [ 127.479004307427317, 34.969261110323615 ], [ 127.478991840382662, 34.969263845876739 ], [ 127.478979388922653, 34.969282760606781 ], [ 127.479000199617559, 34.969372058971459 ], [ 127.478848493884271, 34.96971965134896 ], [ 127.478737905230062, 34.969961910253595 ], [ 127.478771401397339, 34.970076676248247 ], [ 127.478800812517775, 34.97011961904699 ], [ 127.478899473822068, 34.970381116263184 ], [ 127.478931078475057, 34.970406112809755 ], [ 127.478966353151932, 34.970421919362487 ], [ 127.479015498016096, 34.970423491496369 ], [ 127.47905750344465, 34.970421612289435 ], [ 127.479104544631042, 34.97041599167806 ] ] ] } },
{ "type": "Feature", "properties": { "gid": 47690, "ufid": "100034702020A00310100000000047690", "widt": 4.5, "qual": "SWQ003", "byyn": "BYC002", "kind": "SWK001", "scls": "A0033324", "fmta": "R24027690" }, "geometry": { "type": "MultiLineString", "coordinates": [ [ [ 127.482686136648837, 34.970421735661475 ], [ 127.482633076187099, 34.970260655050886 ], [ 127.482618293084457, 34.970264310428156 ], [ 127.482661773174897, 34.970416903322047 ], [ 127.482615097707594, 34.970429659998274 ], [ 127.482617196972612, 34.970438460462915 ], [ 127.482686136648837, 34.970421735661475 ] ] ] } },
{ "type": "Feature", "properties": { "gid": 47692, "ufid": "100034702020A00310100000000047692", "widt": 3.0, "qual": "SWQ003", "byyn": "BYC002", "kind": "SWK001", "scls": "A0033324", "fmta": "R24027692" }, "geometry": { "type": "MultiLineString", "coordinates": [ [ [ 127.47971978914029, 34.970368007532336 ], [ 127.479710305028846, 34.970365908481007 ], [ 127.479484717008319, 34.970414211518317 ], [ 127.479486468230633, 34.970429177233065 ], [ 127.479493496233488, 34.970440275337623 ], [ 127.479754662874726, 34.970384356641873 ], [ 127.479749169217811, 34.970379275274574 ], [ 127.47971978914029, 34.970368007532336 ] ] ] } },
{ "type": "Feature", "properties": { "gid": 47699, "ufid": "100034702020A00310100000000047699", "widt": 5.0, "qual": "SWQ003", "byyn": "BYC001", "kind": "SWK001", "scls": "A0033324", "fmta": "R24027699" }, "geometry": { "type": "MultiLineString", "coordinates": [ [ [ 127.483666133261067, 34.970511069685649 ], [ 127.483653256374993, 34.970481212862204 ], [ 127.483742884367629, 34.970201816296111 ], [ 127.483769560995441, 34.970103586979178 ], [ 127.483777659658472, 34.970087744338286 ], [ 127.483788503329549, 34.970028641575361 ], [ 127.483789797019782, 34.970023391767612 ], [ 127.483791105933122, 34.970018717277505 ], [ 127.483881496919437, 34.969742741923895 ], [ 127.483887395042387, 34.969742097054542 ], [ 127.483890885312462, 34.969730338715053 ], [ 127.483892942607, 34.969730302917988 ], [ 127.483913791550052, 34.969663004571558 ], [ 127.483911596741137, 34.969660418065637 ], [ 127.483958129905261, 34.969503355832394 ], [ 127.484029294447595, 34.969249876434851 ], [ 127.484002022386335, 34.969247136939686 ], [ 127.483997870679659, 34.969246674697352 ], [ 127.483975886802, 34.969247546494906 ], [ 127.48397364541367, 34.969247933951102 ], [ 127.483904863897962, 34.969492940801217 ], [ 127.483838135361623, 34.969702020405471 ], [ 127.483737975555172, 34.970007779177848 ], [ 127.483736282949678, 34.970013842308894 ], [ 127.48373483796496, 34.970019680035925 ], [ 127.483717193575117, 34.970089813874935 ], [ 127.483689679333878, 34.97019113967275 ], [ 127.483612977061981, 34.970430246016093 ], [ 127.483617852421915, 34.970493819946647 ], [ 127.483623821160293, 34.970523946367003 ] ] ] } },
{ "type": "Feature", "properties": { "gid": 47743, "ufid": "100034702020A00310100000000047743", "widt": 4.5, "qual": "SWQ003", "byyn": "BYC002", "kind": "SWK001", "scls": "A0033324", "fmta": "R24027743" }, "geometry": { "type": "MultiLineString", "coordinates": [ [ [ 127.482728870086007, 34.970583556013672 ], [ 127.48269451577859, 34.970453796722062 ], [ 127.482623416504779, 34.970467166714592 ], [ 127.482628466466636, 34.970478432981658 ], [ 127.482684144832191, 34.970464525149758 ], [ 127.482707275005637, 34.970557064979182 ], [ 127.482659764082754, 34.97056760595715 ], [ 127.482712216959271, 34.970733155527086 ], [ 127.482684673211793, 34.970795999866695 ], [ 127.482560342696601, 34.970826746127514 ], [ 127.482667396434408, 34.97083211783989 ], [ 127.482703150165037, 34.970829801836906 ], [ 127.482711820170536, 34.970822865920304 ], [ 127.482714845666109, 34.970818722816638 ], [ 127.482721477399352, 34.970804563603728 ], [ 127.482731349366219, 34.97063996614709 ], [ 127.482728870086007, 34.970583556013672 ] ] ] } },
{ "type": "Feature", "properties": { "gid": 47745, "ufid": "100034702020A00310100000000047745", "widt": 3.0, "qual": "SWQ003", "byyn": "BYC002", "kind": "SWK001", "scls": "A0033324", "fmta": "R24027745" }, "geometry": { "type": "MultiLineString", "coordinates": [ [ [ 127.479275220494742, 34.970465633326292 ], [ 127.479265947055779, 34.970462181653446 ], [ 127.479178968029231, 34.97048085821595 ], [ 127.479138361574783, 34.97049539645117 ], [ 127.479082667889756, 34.970519726867664 ], [ 127.479051946012504, 34.97054671992322 ], [ 127.479031335001636, 34.970583801676099 ], [ 127.47901866803592, 34.970622259062743 ], [ 127.479012520842289, 34.970662719456428 ], [ 127.479013998424634, 34.970702239741939 ], [ 127.479022684438732, 34.970749698462853 ], [ 127.479053653295097, 34.970828680744887 ], [ 127.479056152579162, 34.970831059988448 ], [ 127.47907451159071, 34.970836035394427 ], [ 127.479091979543398, 34.970838408198077 ], [ 127.479054766077923, 34.970743496363575 ], [ 127.479046769239972, 34.970699801662107 ], [ 127.479045433108212, 34.970663996605246 ], [ 127.479050981144042, 34.970627503800024 ], [ 127.479062332508306, 34.97059302650122 ], [ 127.479079585425879, 34.970561987683318 ], [ 127.479102900215182, 34.970541505774356 ], [ 127.479152629469112, 34.970519776771233 ], [ 127.479189727895701, 34.970506496771158 ], [ 127.479275777931306, 34.970488022034182 ], [ 127.479279677012343, 34.970482570727839 ], [ 127.479275220494742, 34.970465633326292 ] ] ] } },
{ "type": "Feature", "properties": { "gid": 47753, "ufid": "100034702020A00310100000000047753", "widt": 5.0, "qual": "SWQ999", "byyn": "BYC002", "kind": "SWK001", "scls": "A0033324", "fmta": "R24027753" }, "geometry": { "type": "MultiLineString", "coordinates": [ [ [ 127.483623821160293, 34.970523946367003 ], [ 127.483645251888859, 34.970552029704507 ], [ 127.483666573843749, 34.970565248600643 ], [ 127.483972642914026, 34.97062671107939 ], [ 127.484209484461687, 34.970677880264482 ], [ 127.48440035839478, 34.970719862453031 ] ], [ [ 127.484400367427327, 34.970672216513854 ], [ 127.484380469119216, 34.970666513292663 ], [ 127.484367851853733, 34.970664039074769 ], [ 127.484226187886051, 34.970634524562755 ], [ 127.483730969113125, 34.970527657937417 ], [ 127.483666133261067, 34.970511069685649 ] ] ] } },
{ "type": "Feature", "properties": { "gid": 47762, "ufid": "100034702020A00310100000000047762", "widt": 1.5, "qual": "SWQ003", "byyn": "BYC002", "kind": "SWK001", "scls": "A0033324", "fmta": "R24027762" }, "geometry": { "type": "MultiLineString", "coordinates": [ [ [ 127.481765528789012, 34.970995686486816 ], [ 127.481661183566203, 34.97091374692566 ], [ 127.48158125465612, 34.970856260987944 ], [ 127.481520561733092, 34.970821758084341 ], [ 127.481466193043872, 34.97079711944064 ], [ 127.48140264399197, 34.970778493127739 ], [ 127.481350646295198, 34.970771830249817 ], [ 127.481303617159995, 34.970767582997176 ], [ 127.481269203218858, 34.970769774353499 ], [ 127.481216519531458, 34.970773742927165 ], [ 127.481171820592024, 34.970783414471953 ], [ 127.481086626456076, 34.970805732133421 ], [ 127.480978188357625, 34.970837449529732 ], [ 127.480907394421664, 34.970863654052437 ], [ 127.480902420932068, 34.970868373022007 ], [ 127.480904349239026, 34.970881423429276 ], [ 127.480949644165705, 34.970862460460218 ], [ 127.48103287793451, 34.970838191205175 ], [ 127.481126940662236, 34.9708083976616 ], [ 127.481204861011278, 34.970794721203937 ], [ 127.481275614874789, 34.970789887940761 ], [ 127.481329718945702, 34.970787961118432 ], [ 127.481390499147707, 34.970794526159068 ], [ 127.481438897289252, 34.970805249945016 ], [ 127.481501686126578, 34.970833529340688 ], [ 127.481586091348277, 34.970880121084612 ], [ 127.481696890565871, 34.970959282494825 ], [ 127.481744520165421, 34.970998052223777 ] ] ] } },
{ "type": "Feature", "properties": { "gid": 47763, "ufid": "100034702020A00310100000000047763", "widt": 1.5, "qual": "SWQ003", "byyn": "BYC002", "kind": "SWK001", "scls": "A0033324", "fmta": "R24027763" }, "geometry": { "type": "MultiLineString", "coordinates": [ [ [ 127.481744520165421, 34.970998052223777 ], [ 127.481765528789012, 34.970995686486816 ] ] ] } },
{ "type": "Feature", "properties": { "gid": 47764, "ufid": "100034702020A00310100000000047764", "widt": 1.5, "qual": "SWQ003", "byyn": "BYC002", "kind": "SWK001", "scls": "A0033324", "fmta": "R24027764" }, "geometry": { "type": "MultiLineString", "coordinates": [ [ [ 127.481744520165421, 34.970998052223777 ], [ 127.481765528789012, 34.970995686486816 ] ] ] } },
{ "type": "Feature", "properties": { "gid": 47781, "ufid": "100034702020A00310100000000047781", "widt": 1.5, "qual": "SWQ003", "byyn": "BYC002", "kind": "SWK001", "scls": "A0033324", "fmta": "R24027781" }, "geometry": { "type": "MultiLineString", "coordinates": [ [ [ 127.481744520165421, 34.970998052223777 ], [ 127.481793823409532, 34.971038182021395 ], [ 127.481832866728681, 34.971007299376517 ], [ 127.481906911365087, 34.971063196291681 ], [ 127.481921791370297, 34.971053076381224 ], [ 127.481855424041356, 34.971001441383869 ], [ 127.48184318492531, 34.970993174128147 ], [ 127.481833839119105, 34.970989260945622 ], [ 127.48182515199403, 34.970988974693327 ], [ 127.481765528789012, 34.970995686486816 ] ] ] } },
{ "type": "Feature", "properties": { "gid": 47782, "ufid": "100034702020A00310100000000047782", "widt": 2.0, "qual": "SWQ003", "byyn": "BYC002", "kind": "SWK001", "scls": "A0033324", "fmta": "R24027782" }, "geometry": { "type": "MultiLineString", "coordinates": [ [ [ 127.478972897075536, 34.97087811506897 ], [ 127.478967740239597, 34.970875392699071 ], [ 127.47895860460811, 34.970881252481668 ], [ 127.478959712594062, 34.970883764944901 ], [ 127.478995492735677, 34.9709973499656 ], [ 127.478998264351034, 34.971031528515077 ], [ 127.478996314962956, 34.9710464449009 ], [ 127.478991683453501, 34.971054242420415 ], [ 127.478987221428483, 34.9710589830418 ], [ 127.479000716374244, 34.971064581626955 ], [ 127.479005040329497, 34.971059990671449 ], [ 127.479010640600336, 34.971050806429758 ], [ 127.479015832917412, 34.971034725545096 ], [ 127.479017632708263, 34.971022191552521 ], [ 127.479015141149489, 34.970998092796158 ], [ 127.479005731028607, 34.970963399102779 ], [ 127.478985383281227, 34.970895681487136 ], [ 127.478979821112574, 34.970884392437071 ], [ 127.478972897075536, 34.97087811506897 ] ] ] } },
{ "type": "Feature", "properties": { "gid": 47789, "ufid": "100034702020A00310100000000047789", "widt": 2.0, "qual": "SWQ003", "byyn": "BYC002", "kind": "SWK001", "scls": "A0033324", "fmta": "R24027789" }, "geometry": { "type": "MultiLineString", "coordinates": [ [ [ 127.479155539721219, 34.971113948368057 ], [ 127.479125000897795, 34.97097132619367 ], [ 127.479108835219179, 34.97097416211799 ], [ 127.479106038979509, 34.970976387152142 ], [ 127.479105613454607, 34.970978266322717 ], [ 127.479133778371818, 34.971116400993708 ], [ 127.479134538338414, 34.971117586021741 ], [ 127.479155539721219, 34.971113948368057 ] ] ] } },
{ "type": "Feature", "properties": { "gid": 47793, "ufid": "100034702020A00310100000000047793", "widt": 4.0, "qual": "SWQ003", "byyn": "BYC001", "kind": "SWK001", "scls": "A0033324", "fmta": "R24027793" }, "geometry": { "type": "MultiLineString", "coordinates": [ [ [ 127.483599051555643, 34.970770050034687 ], [ 127.483633883581021, 34.970747474951231 ], [ 127.483888355124307, 34.970802833052765 ], [ 127.484216740033048, 34.970876691503925 ], [ 127.48435399602505, 34.970907078350528 ], [ 127.484374325056052, 34.970912035174109 ], [ 127.484358807025899, 34.970874394194595 ], [ 127.484354498262007, 34.970869848827164 ], [ 127.484228196687368, 34.970841887304054 ], [ 127.483899724271893, 34.97076801264042 ], [ 127.483652699582038, 34.970714275105365 ], [ 127.483649044918806, 34.970714983387687 ], [ 127.483548466917938, 34.970746642818838 ], [ 127.483485029596466, 34.970955150922855 ], [ 127.483435248017699, 34.971088806711009 ], [ 127.483451133563065, 34.971116478126362 ], [ 127.483467307649107, 34.971125716036987 ], [ 127.483527234450804, 34.970964825202188 ], [ 127.483578758165976, 34.970795503652539 ], [ 127.483599051555643, 34.970770050034687 ] ] ] } },
{ "type": "Feature", "properties": { "gid": 47849, "ufid": "100034702020A00310100000000047849", "widt": 4.5, "qual": "SWQ003", "byyn": "BYC002", "kind": "SWK001", "scls": "A0033324", "fmta": "R24027849" }, "geometry": { "type": "MultiLineString", "coordinates": [ [ [ 127.483784615980099, 34.968825405296968 ], [ 127.483688449661841, 34.969165990142557 ], [ 127.483535975272858, 34.969722160952649 ], [ 127.483381128328176, 34.970288616539619 ], [ 127.483281407852019, 34.970641595928974 ], [ 127.483175043367922, 34.970995241589314 ], [ 127.483115419314871, 34.971161423751404 ], [ 127.483039456487546, 34.971340260539641 ], [ 127.482963669332491, 34.971483853365427 ], [ 127.482953110654663, 34.971485491262321 ], [ 127.482967135870794, 34.971492476369853 ], [ 127.482983679264066, 34.971495898118967 ], [ 127.483022426841458, 34.971474326506481 ], [ 127.483085369760587, 34.971355050206824 ], [ 127.48316233863892, 34.971173865376812 ], [ 127.483222609313728, 34.971005859945969 ], [ 127.483329326585377, 34.97065106005487 ], [ 127.483429165264099, 34.97029765682101 ], [ 127.483442920427166, 34.970241317445911 ], [ 127.483444370288254, 34.970233144194431 ], [ 127.483443974297472, 34.97023030723939 ], [ 127.483429828875174, 34.970200958804142 ], [ 127.483429442052326, 34.970196118164935 ], [ 127.483494291779408, 34.969967292055806 ], [ 127.483533999234368, 34.969830733025972 ], [ 127.483619831757665, 34.969520699996075 ], [ 127.483729209869509, 34.969131022186993 ], [ 127.483825059319784, 34.968790803374944 ], [ 127.483824694970266, 34.968788580515621 ], [ 127.483807456841646, 34.968766580958182 ], [ 127.483803790930395, 34.968763660606726 ], [ 127.483800379071099, 34.968761216412396 ] ] ] } },
{ "type": "Feature", "properties": { "gid": 47854, "ufid": "100034702020A00310100000000047854", "widt": 4.0, "qual": "SWQ003", "byyn": "BYC001", "kind": "SWK001", "scls": "A0033324", "fmta": "R24027854" }, "geometry": { "type": "MultiLineString", "coordinates": [ [ [ 127.483442990801663, 34.971187334605979 ], [ 127.48342843227212, 34.971184910523903 ], [ 127.483398668199712, 34.971194286446 ], [ 127.483379148789027, 34.971237811173168 ], [ 127.483303966620099, 34.971372632088084 ], [ 127.48324156803065, 34.971510168980863 ], [ 127.483245959037191, 34.971519560394498 ], [ 127.483255375450312, 34.971532431446263 ], [ 127.483272868044537, 34.971544243153865 ], [ 127.483344444331834, 34.971386477680994 ], [ 127.483420016582741, 34.97125095162729 ], [ 127.483428723576907, 34.971228897852512 ], [ 127.483439167773028, 34.971208014783414 ], [ 127.483451549121767, 34.971196347846416 ], [ 127.483463563685063, 34.971189106639549 ], [ 127.483453180677387, 34.971189031281881 ], [ 127.483442990801663, 34.971187334605979 ] ] ] } },
{ "type": "Feature", "properties": { "gid": 47856, "ufid": "100034702020A00310100000000047856", "widt": 2.0, "qual": "SWQ003", "byyn": "BYC002", "kind": "SWK001", "scls": "A0033324", "fmta": "R24027856" }, "geometry": { "type": "MultiLineString", "coordinates": [ [ [ 127.482199025411418, 34.971540667458711 ], [ 127.482168778213421, 34.971528646322234 ], [ 127.482177787871706, 34.971511909391182 ], [ 127.482181370904286, 34.97151337976684 ], [ 127.482231374127153, 34.971429285529055 ], [ 127.482232246501752, 34.971422523445405 ], [ 127.482230831661354, 34.971420057858261 ], [ 127.482010615744713, 34.971332449434392 ], [ 127.481984059445878, 34.971324999760938 ], [ 127.481968316139302, 34.971335187181481 ], [ 127.482008014116147, 34.971346762501582 ], [ 127.482208465178729, 34.971429581555434 ], [ 127.482148503599106, 34.971535348744609 ], [ 127.482191504320596, 34.971553298047439 ] ] ] } },
{ "type": "Feature", "properties": { "gid": 47857, "ufid": "100034702020A00310100000000047857", "widt": 2.0, "qual": "SWQ003", "byyn": "BYC002", "kind": "SWK001", "scls": "A0033324", "fmta": "R24027857" }, "geometry": { "type": "MultiLineString", "coordinates": [ [ [ 127.482199025411418, 34.971540667458711 ], [ 127.482191504320596, 34.971553298047439 ] ] ] } },
{ "type": "Feature", "properties": { "gid": 47858, "ufid": "100034702020A00310100000000047858", "widt": 2.0, "qual": "SWQ003", "byyn": "BYC002", "kind": "SWK001", "scls": "A0033324", "fmta": "R24027858" }, "geometry": { "type": "MultiLineString", "coordinates": [ [ [ 127.482199025411418, 34.971540667458711 ], [ 127.482191504320596, 34.971553298047439 ] ] ] } },
{ "type": "Feature", "properties": { "gid": 47877, "ufid": "100034702020A00310100000000047877", "widt": 2.0, "qual": "SWQ003", "byyn": "BYC002", "kind": "SWK001", "scls": "A0033324", "fmta": "R24027877" }, "geometry": { "type": "MultiLineString", "coordinates": [ [ [ 127.482191504320596, 34.971553298047439 ], [ 127.482162708090073, 34.971602297533551 ] ], [ [ 127.482199009381219, 34.971602302860099 ], [ 127.482249966271795, 34.971517980613342 ], [ 127.482308611996359, 34.971407252664058 ], [ 127.482310596935037, 34.971402568370223 ], [ 127.482311673432818, 34.971399186068744 ], [ 127.482311705315723, 34.971393560966817 ], [ 127.482310525325374, 34.971389154852211 ], [ 127.482308099079418, 34.971382836849401 ], [ 127.482300150937803, 34.971374357452667 ], [ 127.482177866888563, 34.971263420905615 ], [ 127.481992004314861, 34.971107989767837 ], [ 127.481975275774957, 34.971120159086666 ], [ 127.48197415391877, 34.971120518717768 ], [ 127.481950262981428, 34.971128173718803 ], [ 127.481911586042202, 34.971151794675144 ], [ 127.4816742127678, 34.971304464773496 ], [ 127.481604333200366, 34.971351093538281 ], [ 127.481615515318396, 34.971363728726899 ], [ 127.481908987821527, 34.971170485729864 ], [ 127.481926896640033, 34.971161392459869 ], [ 127.481933223901478, 34.971157621387597 ], [ 127.481951673594423, 34.971154845843998 ], [ 127.481989919435705, 34.97115381270779 ], [ 127.482000963859846, 34.971160045426963 ], [ 127.48200517303205, 34.971163619679821 ], [ 127.482007464104797, 34.971166750889878 ], [ 127.482023797304294, 34.971179080209886 ], [ 127.48203868243867, 34.971190660862312 ], [ 127.482087649164967, 34.971232913205448 ], [ 127.482111352836597, 34.971240168560279 ], [ 127.482147689613157, 34.971267900868099 ], [ 127.482236731911783, 34.971344204546838 ], [ 127.482273137956298, 34.971376260710429 ], [ 127.48227273505195, 34.97138025179008 ], [ 127.482266854632428, 34.971415061125391 ], [ 127.482256627442453, 34.971439063272328 ], [ 127.482209452797647, 34.971523157033019 ], [ 127.482199025411418, 34.971540667458711 ] ] ] } },
{ "type": "Feature", "properties": { "gid": 47898, "ufid": "100034702020A00310100000000047898", "widt": 2.0, "qual": "SWQ003", "byyn": "BYC002", "kind": "SWK001", "scls": "A0033324", "fmta": "R24027898" }, "geometry": { "type": "MultiLineString", "coordinates": [ [ [ 127.482939118309005, 34.971602409091659 ], [ 127.48293989470362, 34.971601502943592 ], [ 127.482945354601569, 34.971591101141172 ], [ 127.482944047891039, 34.971584795932984 ], [ 127.482940506307415, 34.971578827664729 ], [ 127.482934703903112, 34.971571538919051 ], [ 127.482908885989744, 34.971602404840624 ] ], [ [ 127.48263797279472, 34.971602366410998 ], [ 127.482581194902338, 34.971521573347758 ], [ 127.482492280148108, 34.971389182092992 ], [ 127.482453908557233, 34.971342408275277 ], [ 127.482428834551797, 34.97132403964163 ], [ 127.482325580837212, 34.971230111166371 ], [ 127.482132760601928, 34.971064734748325 ], [ 127.481913234743189, 34.97088268973333 ], [ 127.481749122413447, 34.97075549880438 ], [ 127.481657847755926, 34.970692882064419 ], [ 127.481586297705235, 34.970662906133519 ], [ 127.481454343957324, 34.970628590754544 ], [ 127.481444649813525, 34.970615117150821 ], [ 127.481323554007361, 34.970593000338603 ], [ 127.481231830093549, 34.970590713791523 ], [ 127.481161208277314, 34.97059370748287 ], [ 127.481099094808144, 34.970602479058705 ], [ 127.481082042699541, 34.970611506513272 ], [ 127.481075939830973, 34.970625601695346 ], [ 127.48096782034726, 34.970673271064271 ], [ 127.480856492394153, 34.970733699572186 ], [ 127.480746561409177, 34.970797131021385 ], [ 127.480681672367027, 34.970831450281608 ], [ 127.480564392590011, 34.970913553803094 ], [ 127.480512475461268, 34.970959801572889 ], [ 127.480338975560514, 34.971113153806563 ], [ 127.480194525694003, 34.971255168337848 ], [ 127.48012296190916, 34.971318511686214 ], [ 127.480049167227506, 34.971356273826359 ], [ 127.480008550058912, 34.971368675204914 ], [ 127.47984372986852, 34.971420209934323 ], [ 127.479745139584182, 34.971440401712279 ], [ 127.479657152668821, 34.971455487683869 ], [ 127.47941494706744, 34.971478906755983 ], [ 127.479228886462508, 34.971497460109127 ], [ 127.479209772098642, 34.971498412691602 ], [ 127.479211744382255, 34.971509837279548 ], [ 127.479214120475632, 34.971514278797066 ], [ 127.479219090214343, 34.971516274315029 ], [ 127.479223891645233, 34.971516695351305 ], [ 127.479283374041245, 34.971510282359269 ], [ 127.479402127165812, 34.971498294877875 ], [ 127.479594426877725, 34.971478429362143 ], [ 127.479695591892551, 34.971466120319938 ], [ 127.479788815187732, 34.971446849276063 ], [ 127.479892194945577, 34.97142219550296 ], [ 127.480022729223478, 34.971385696235956 ], [ 127.48003989570779, 34.97138049146163 ], [ 127.480110019389713, 34.971338375084727 ], [ 127.48014274295484, 34.971319292229431 ], [ 127.480170537962877, 34.971299963285041 ], [ 127.480202332656575, 34.971271227045023 ], [ 127.480361816024597, 34.971119470643124 ], [ 127.480506422108945, 34.970981697759434 ], [ 127.480565717489426, 34.970925519315692 ], [ 127.480622966115845, 34.970884621545679 ], [ 127.480655521614537, 34.970861551893883 ], [ 127.480785052609008, 34.970790884393622 ], [ 127.480984659877521, 34.970683554536969 ], [ 127.481034207855046, 34.970662308974354 ], [ 127.481066587369142, 34.970650954700737 ], [ 127.481113205429082, 34.970627399270967 ], [ 127.481147625101045, 34.970614296802552 ], [ 127.481183911209868, 34.970607070406963 ], [ 127.481219557642575, 34.970604249844875 ], [ 127.481290591496787, 34.970605498008148 ], [ 127.481418250292364, 34.970622923158253 ], [ 127.481430060020742, 34.970625724893864 ], [ 127.481434136833798, 34.970628208932609 ], [ 127.481446026563887, 34.970640592658647 ], [ 127.481450400906823, 34.970645036241841 ], [ 127.481454307993062, 34.97064720554377 ], [ 127.481458938143092, 34.970649165750288 ], [ 127.481596103655633, 34.970686002301171 ], [ 127.48161797840477, 34.970694893247561 ], [ 127.481684532986847, 34.970735237612431 ], [ 127.481799286224302, 34.970816970412343 ], [ 127.481922318665397, 34.970911786902448 ], [ 127.482077681817216, 34.971044563536722 ], [ 127.482289564324134, 34.971225855077087 ], [ 127.482369327605639, 34.971293418461599 ], [ 127.48241607820988, 34.971336510779381 ], [ 127.482439025798556, 34.971360358131541 ], [ 127.482459906928, 34.971385987035667 ], [ 127.482519613654688, 34.971466759838783 ], [ 127.482614807182728, 34.971602363096856 ] ] ] } },
{ "type": "Feature", "properties": { "gid": 47927, "ufid": "100034702020A00310100000000047927", "widt": 4.0, "qual": "SWQ003", "byyn": "BYC002", "kind": "SWK001", "scls": "A0033324", "fmta": "R24027927" }, "geometry": { "type": "MultiLineString", "coordinates": [ [ [ 127.482454438347673, 34.971602340032824 ], [ 127.482409760815131, 34.97154014359063 ], [ 127.482406156352965, 34.971536402616181 ], [ 127.48240134105896, 34.971534131316012 ], [ 127.48239575215878, 34.971532746322183 ], [ 127.482387670968421, 34.971531584600278 ], [ 127.482379793332072, 34.971531392286892 ], [ 127.482367437273808, 34.971531450910611 ], [ 127.48234791142886, 34.971535667354686 ], [ 127.482333168742443, 34.971548946161114 ], [ 127.482300731711845, 34.971602317728191 ] ], [ [ 127.482323548141125, 34.971602321051414 ], [ 127.48234141942207, 34.97157198432712 ], [ 127.482353117071256, 34.971577148536994 ], [ 127.482361106043342, 34.971563916540099 ], [ 127.482364572856284, 34.971560756415506 ], [ 127.482369790944574, 34.971559535304088 ], [ 127.4823754800166, 34.971558675861928 ], [ 127.48237955415614, 34.971558646695428 ], [ 127.482389319030617, 34.971560224368062 ], [ 127.482394435888367, 34.971561082672679 ], [ 127.48240390009407, 34.971570143008634 ], [ 127.482408548981638, 34.971577042057277 ], [ 127.482409963527758, 34.971580921583701 ], [ 127.482425353663075, 34.971593194803908 ], [ 127.482431656968757, 34.971602336739259 ] ] ] } },
{ "type": "Feature", "properties": { "gid": 48041, "ufid": "100034702020A00310100000000048041", "widt": 1.5, "qual": "SWQ003", "byyn": "BYC002", "kind": "SWK001", "scls": "A0033324", "fmta": "R24028041" }, "geometry": { "type": "MultiLineString", "coordinates": [ [ [ 127.479097004572367, 34.971523873136199 ], [ 127.479110472820594, 34.971505508642551 ], [ 127.479011031064871, 34.971529966751078 ], [ 127.478862820604419, 34.971569744218399 ], [ 127.478768173375755, 34.971599573775485 ], [ 127.478762470769553, 34.971601750500668 ] ], [ [ 127.478810237125245, 34.971601758844677 ], [ 127.478868671420301, 34.97158334179862 ], [ 127.47901625523815, 34.971543733744689 ], [ 127.479097004572367, 34.971523873136199 ] ] ] } },
{ "type": "Feature", "properties": { "gid": 844818, "ufid": "100034702020A00310100000000844844", "widt": 0.0, "qual": "SWQ003", "byyn": "BYC001", "kind": "SWK002", "scls": "A0033327", "fmta": "R24024844" }, "geometry": { "type": "MultiLineString", "coordinates": [ [ [ 127.484017410790884, 34.969193973663891 ], [ 127.484079157106933, 34.968980822796468 ] ] ] } },
{ "type": "Feature", "properties": { "gid": 844781, "ufid": "100034702020A00310100000000844807", "widt": 0.0, "qual": "SWQ003", "byyn": "BYC001", "kind": "SWK002", "scls": "A0033327", "fmta": "R24024807" }, "geometry": { "type": "MultiLineString", "coordinates": [ [ [ 127.484324755040333, 34.968056509882054 ], [ 127.484348762162142, 34.967967771867514 ] ] ] } },
{ "type": "Feature", "properties": { "gid": 844779, "ufid": "100034702020A00310100000000844805", "widt": 0.0, "qual": "SWQ003", "byyn": "BYC001", "kind": "SWK002", "scls": "A0033327", "fmta": "R24024805" }, "geometry": { "type": "MultiLineString", "coordinates": [ [ [ 127.484361894063213, 34.967888535077329 ], [ 127.484400918129424, 34.967767099936772 ] ] ] } },
{ "type": "Feature", "properties": { "gid": 844780, "ufid": "100034702020A00310100000000844806", "widt": 0.0, "qual": "SWQ003", "byyn": "BYC001", "kind": "SWK002", "scls": "A0033327", "fmta": "R24024806" }, "geometry": { "type": "MultiLineString", "coordinates": [ [ [ 127.484250882878129, 34.96723656703869 ], [ 127.48418059357931, 34.9675141216592 ], [ 127.484156672666487, 34.967604324098708 ], [ 127.48412191032368, 34.967727587740846 ], [ 127.484025356606409, 34.968057406884419 ], [ 127.483975697840549, 34.968248957056403 ] ] ] } },
{ "type": "Feature", "properties": { "gid": 844786, "ufid": "100034702020A00310100000000844812", "widt": 0.0, "qual": "SWQ003", "byyn": "BYC001", "kind": "SWK002", "scls": "A0033327", "fmta": "R24024812" }, "geometry": { "type": "MultiLineString", "coordinates": [ [ [ 127.484137155052679, 34.968764585616164 ], [ 127.484173101153701, 34.968617221104267 ], [ 127.484284278248609, 34.968206173325996 ] ] ] } },
{ "type": "Feature", "properties": { "gid": 844789, "ufid": "100034702020A00310100000000844815", "widt": 0.0, "qual": "SWQ003", "byyn": "BYC001", "kind": "SWK002", "scls": "A0033327", "fmta": "R24024815" }, "geometry": { "type": "MultiLineString", "coordinates": [ [ [ 127.484400363271149, 34.970694140052991 ], [ 127.483979305492113, 34.970604853574187 ], [ 127.483678540592564, 34.970544452281267 ], [ 127.483657357865496, 34.970536252538302 ], [ 127.48364389606995, 34.970517034464585 ], [ 127.483637194015856, 34.970483584101245 ], [ 127.4836405738656, 34.970432471645211 ], [ 127.48371627637168, 34.970196477986619 ], [ 127.483743950638427, 34.970094557050203 ], [ 127.483761658586531, 34.970024206796175 ], [ 127.483763039984055, 34.970018612532463 ], [ 127.483764541838738, 34.970013243721979 ], [ 127.483864580986378, 34.969707818558931 ], [ 127.483931438802486, 34.969498342188011 ], [ 127.484000316707267, 34.969253010706211 ], [ 127.484002022386335, 34.969247136939686 ] ] ] } },
{ "type": "Feature", "properties": { "gid": 844794, "ufid": "100034702020A00310100000000844820", "widt": 0.0, "qual": "SWQ003", "byyn": "BYC001", "kind": "SWK002", "scls": "A0033327", "fmta": "R24024820" }, "geometry": { "type": "MultiLineString", "coordinates": [ [ [ 127.484401110188614, 34.966753832610777 ], [ 127.484289057726599, 34.96713293216262 ] ] ] } },
{ "type": "Feature", "properties": { "gid": 844797, "ufid": "100034702020A00310100000000844823", "widt": 0.0, "qual": "SWQ001", "byyn": "BYC001", "kind": "SWK002", "scls": "A0033327", "fmta": "R24024823" }, "geometry": { "type": "MultiLineString", "coordinates": [ [ [ 127.484286505098524, 34.96713434577488 ], [ 127.484292901500268, 34.967104756609032 ], [ 127.484401116267549, 34.966721760632709 ] ] ] } },
{ "type": "Feature", "properties": { "gid": 844798, "ufid": "100034702020A00310100000000844824", "widt": 0.0, "qual": "SWQ003", "byyn": "BYC001", "kind": "SWK002", "scls": "A0033327", "fmta": "R24024824" }, "geometry": { "type": "MultiLineString", "coordinates": [ [ [ 127.484093103912926, 34.968932695586666 ], [ 127.484110297596359, 34.968873417774248 ] ] ] } },
{ "type": "Feature", "properties": { "gid": 844808, "ufid": "100034702020A00310100000000844834", "widt": 0.0, "qual": "SWQ003", "byyn": "BYC001", "kind": "SWK002", "scls": "A0033327", "fmta": "R24024834" }, "geometry": { "type": "MultiLineString", "coordinates": [ [ [ 127.484365517052993, 34.970890655387379 ], [ 127.484359947796591, 34.970889720458835 ], [ 127.484222463979663, 34.970859288501828 ], [ 127.483894046272198, 34.970785422847619 ], [ 127.483645007945881, 34.970732161153215 ], [ 127.483582696295201, 34.970757702887724 ], [ 127.483567549942876, 34.970786297087749 ], [ 127.483506127640652, 34.970959987162011 ], [ 127.483451078806908, 34.971116387944051 ] ] ] } },
{ "type": "Feature", "properties": { "gid": 844830, "ufid": "100034702020A00310100000000844856", "widt": 0.0, "qual": "SWQ003", "byyn": "BYC001", "kind": "SWK002", "scls": "A0033327", "fmta": "R24024856" }, "geometry": { "type": "MultiLineString", "coordinates": [ [ [ 127.483426782364305, 34.97118543150934 ], [ 127.483408153773894, 34.971222669372708 ], [ 127.483399576111154, 34.9712443823028 ], [ 127.483324209856221, 34.97137955488683 ], [ 127.483255044703355, 34.971531982329957 ] ] ] } }
]
}
